Structure_ID,Building_Name,latitude,longitude,Street_Name,Street__Number,City,Closest__Station_ID,Distance_To__Closest__Station_km_For_Maule_Chile_2010,Distance_To__Closest__Station_km_For_Valparaiso_Chile_1985,General___Drawings,Main__Building__Photo,Example_of__Severe_Damage,Closest__Station_Name,Max__Hor__PGA__g__For_Maule_Chile_2010,Max__Hor__PGA__g__For_Valparaiso_Chile_1985,Max__Hor__PGV__m_s__For_Maule_Chile_2010,Max__Hor__PGV__m_s__For_Valparaiso_Chile_1985
1,PLAZA DEL MAR,-33.013824,-71.554977,SAN MARTIN,787,Viña del Mar,8,1.33417709751359,3.37229271035967,/data/tools/geoexplorer/Chile-NIST/general_drawings/1/10/elevation.pdf\n/data/tools/geoexplorer/Chile-NIST/general_drawings/1/10/typical_floor_plan_532.pdf\n/data/tools/geoexplorer/Chile-NIST/general_drawings/1/9/typical_plan_architectural.pdf,/data/tools/geoexplorer/Chile-NIST/photos/Maule.Chile.2010/1/4/andres_lepage_DSCN0182.jpg,,CENTRO,0.334,0.363,0.33,
3,TORRES DEL SOL,-33.015135,-71.554475,8 NORTE,310 - 330,Viña del Mar,8,1.18108851413516,3.31942385246642,/data/tools/geoexplorer/Chile-NIST/general_drawings/3/10/3rd_and_5th_floor_plans_532.pdf\n/data/tools/geoexplorer/Chile-NIST/general_drawings/3/10/elevation_a_and_d.pdf\n/data/tools/geoexplorer/Chile-NIST/general_drawings/3/10/elevation_b_and_c.pdf\n/data/tools/geoexplorer/Chile-NIST/general_drawings/3/10/elevation_f_and_g.pdf\n/data/tools/geoexplorer/Chile-NIST/general_drawings/3/10/first_floor_plan_532.pdf\n/data/tools/geoexplorer/Chile-NIST/general_drawings/3/9/first_story_plan.pdf\n/data/tools/geoexplorer/Chile-NIST/general_drawings/3/9/mezzanine_plan.pdf\n/data/tools/geoexplorer/Chile-NIST/general_drawings/3/9/second_story_plan.pdf\n/data/tools/geoexplorer/Chile-NIST/general_drawings/3/9/third_to_sixth_story_plan.pdf,/data/tools/geoexplorer/Chile-NIST/photos/Maule.Chile.2010/3/5/santiago_pujol_IMG_0285.JPG,,CENTRO,0.334,0.363,0.33,
5,TORRES DE MIRAMAR,-33.011652,-71.552163,SAN MARTIN,1020 Y 1080,Viña del Mar,8,1.52289988312439,3.72834105862305,/data/tools/geoexplorer/Chile-NIST/general_drawings/5/10/3rd_and_5th_floor_plans_532.pdf\n/data/tools/geoexplorer/Chile-NIST/general_drawings/5/10/elevation.pdf\n/data/tools/geoexplorer/Chile-NIST/general_drawings/5/10/elevation_a.pdf\n/data/tools/geoexplorer/Chile-NIST/general_drawings/5/10/first_floor_plan_532.pdf\n/data/tools/geoexplorer/Chile-NIST/general_drawings/5/9/first_story_plan.pdf\n/data/tools/geoexplorer/Chile-NIST/general_drawings/5/9/second_story_plan.pdf\n/data/tools/geoexplorer/Chile-NIST/general_drawings/5/9/typical_oddnumbered_story_plan.pdf,/data/tools/geoexplorer/Chile-NIST/photos/Maule.Chile.2010/5/4/andres_lepage_DSCN0258.jpg,,CENTRO,0.334,0.363,0.33,
6,MARINA REAL,-33.013352,-71.553622,SAN MARTIN,880,Viña del Mar,8,1.35435992464023,3.50357341109831,/data/tools/geoexplorer/Chile-NIST/general_drawings/6/10/4th_to_8th_floor_plans_532.pdf\n/data/tools/geoexplorer/Chile-NIST/general_drawings/6/10/elevation.pdf\n/data/tools/geoexplorer/Chile-NIST/general_drawings/6/10/first_floor_plan_532.pdf\n/data/tools/geoexplorer/Chile-NIST/general_drawings/6/9/first_story_plan.pdf\n/data/tools/geoexplorer/Chile-NIST/general_drawings/6/9/fourth_to_eighth_story_plan.pdf\n/data/tools/geoexplorer/Chile-NIST/general_drawings/6/9/second_and_third_story_plan.pdf,/data/tools/geoexplorer/Chile-NIST/photos/Maule.Chile.2010/6/4/andres_lepage_DSCN0211.jpg,/data/tools/geoexplorer/Chile-NIST/photos/Maule.Chile.2010/6/19/john_wallace_P3151771.JPG,CENTRO,0.334,0.363,0.33,
7,TORRES DEL PACIFICO,-33.010018,-71.551305,SAN MARTIN,1130 - 1206 - S/N,Viña del Mar,8,1.69993307243275,3.90674567242666,/data/tools/geoexplorer/Chile-NIST/general_drawings/7/10/3rd_to_5th_floor_plans_532.pdf\n/data/tools/geoexplorer/Chile-NIST/general_drawings/7/10/elevation_2.pdf\n/data/tools/geoexplorer/Chile-NIST/general_drawings/7/10/elevation_3.pdf\n/data/tools/geoexplorer/Chile-NIST/general_drawings/7/10/first_floor_plan_532.pdf\n/data/tools/geoexplorer/Chile-NIST/general_drawings/7/9/foundation_plan.pdf\n/data/tools/geoexplorer/Chile-NIST/general_drawings/7/9/second_story_plan.pdf\n/data/tools/geoexplorer/Chile-NIST/general_drawings/7/9/typical_plan_architectural.pdf,/data/tools/geoexplorer/Chile-NIST/photos/Valparaiso.Chile.1985/7/10/srs_532_torres_del_pacifico2_532.jpg,,CENTRO,0.334,0.363,0.33,
9,ACAPULCO,-33.013235,-71.554459,SAN MARTIN,821,Viña del Mar,8,1.38426297580296,3.45118453609357,/data/tools/geoexplorer/Chile-NIST/general_drawings/9/10/2nd_to_6th_floor_plans_532.pdf\n/data/tools/geoexplorer/Chile-NIST/general_drawings/9/10/elevation_j.pdf\n/data/tools/geoexplorer/Chile-NIST/general_drawings/9/9/second_story_plan.pdf,/data/tools/geoexplorer/Chile-NIST/photos/Maule.Chile.2010/9/4/andres_lepage_DSCN0183.jpg,/data/tools/geoexplorer/Chile-NIST/photos/Maule.Chile.2010/9/3/gabriel_alarcon_DSC02701.JPG,CENTRO,0.334,0.363,0.33,
10,TAHITI,-33.011937,-71.552563,SAN MARTIN,972,Viña del Mar,8,1.4949620667042,3.67940321713701,/data/tools/geoexplorer/Chile-NIST/general_drawings/10/9/typical_plan_architectural.pdf,/data/tools/geoexplorer/Chile-NIST/photos/Maule.Chile.2010/10/5/santiago_pujol_IMG_0334.JPG,,CENTRO,0.334,0.363,0.33,
13,FESTIVAL,-33.014301,-71.552957,9 NORTE,450,Viña del Mar,8,1.23945717169273,3.48833149539234,/data/tools/geoexplorer/Chile-NIST/general_drawings/13/10/elevation_l.pdf\n/data/tools/geoexplorer/Chile-NIST/general_drawings/13/10/first_floor_plan_532.pdf\n/data/tools/geoexplorer/Chile-NIST/general_drawings/13/9/first_story_plan_architectural.pdf\n/data/tools/geoexplorer/Chile-NIST/general_drawings/13/9/second_story_plan_architectural.pdf,/data/tools/geoexplorer/Chile-NIST/photos/Maule.Chile.2010/13/5/santiago_pujol_IMG_0253.JPG,/data/tools/geoexplorer/Chile-NIST/photos/Maule.Chile.2010/13/5/santiago_pujol_IMG_0085.JPG,CENTRO,0.334,0.363,0.33,
16,GALLERIA LIBERTAD CENTRO,-33.017666,-71.550039,LIBERTAD / 6 NORTE,466,Viña del Mar,8,0.8518220367041,3.51427220817604,/data/tools/geoexplorer/Chile-NIST/general_drawings/16/9/first_story_plan_architectural.pdf\n/data/tools/geoexplorer/Chile-NIST/general_drawings/16/9/fourth_story_plan.pdf\n/data/tools/geoexplorer/Chile-NIST/general_drawings/16/9/typical_plan_architectural.pdf,/data/tools/geoexplorer/Chile-NIST/photos/Maule.Chile.2010/16/4/andres_lepage_DSCN0049.jpg,/data/tools/geoexplorer/Chile-NIST/photos/Maule.Chile.2010/16/5/santiago_pujol_IMG_0535.JPG,CENTRO,0.334,0.363,0.33,
19,ATALAYA,-33.015187,-71.556777,AV. PERU,590,Viña del Mar,8,1.25501954884315,3.14645682217554,/data/tools/geoexplorer/Chile-NIST/general_drawings/19/9/second_and_third_story_plan_architectural.pdf,/data/tools/geoexplorer/Chile-NIST/photos/Maule.Chile.2010/19/4/andres_lepage_DSCN0561.jpg,,CENTRO,0.334,0.363,0.33,
21,MEDITERRANEO,-33.01993,-71.549194,4 NORTE - 1 ORIENTE,,Viña del Mar,8,0.615603501534832,3.47060717009491,/data/tools/geoexplorer/Chile-NIST/general_drawings/21/9/typical_plan_architectural.pdf,/data/tools/geoexplorer/Chile-NIST/photos/Maule.Chile.2010/21/4/andres_lepage_DSCN0506.jpg,,CENTRO,0.334,0.363,0.33,
23,PONTECASINO,-33.021684,-71.560484,MARINA,110,Viña del Mar,8,0.988335279125874,2.44734352196399,,/data/tools/geoexplorer/Chile-NIST/photos/Maule.Chile.2010/23/4/andres_lepage_DSCN0119.jpg,,CENTRO,0.334,0.363,0.33,
24,SOLIMAR,-33.020006,-71.559545,SAN MARTIN,120,Viña del Mar,8,1.00561607523998,2.62090113628648,/data/tools/geoexplorer/Chile-NIST/general_drawings/24/9/typical_plan.pdf,/data/tools/geoexplorer/Chile-NIST/photos/Maule.Chile.2010/24/4/andres_lepage_DSCN0415.jpg,,CENTRO,0.334,0.363,0.33,
26,MAYA,-33.017018,-71.55723,SAN MARTIN,458,Viña del Mar,8,1.09885269403638,2.98835483619908,/data/tools/geoexplorer/Chile-NIST/general_drawings/26/9/first_story.pdf\n/data/tools/geoexplorer/Chile-NIST/general_drawings/26/9/second_story.pdf,/data/tools/geoexplorer/Chile-NIST/photos/Maule.Chile.2010/26/4/andres_lepage_DSCN0598.jpg,,CENTRO,0.334,0.363,0.33,
27,TOSSA DEL MAR,-33.0169,-71.558917,AV. PERU,444,Viña del Mar,8,1.20213871934226,2.87159996677542,/data/tools/geoexplorer/Chile-NIST/general_drawings/27/9/typical_plan_architectural.pdf,/data/tools/geoexplorer/Chile-NIST/photos/Maule.Chile.2010/27/4/andres_lepage_DSCN0511.jpg,,CENTRO,0.334,0.363,0.33,
28,CENTRO MAR,-33.015305,-71.556102,SAN MARTIN,605,Viña del Mar,8,1.21637011011742,3.18748168406999,,/data/tools/geoexplorer/Chile-NIST/photos/Maule.Chile.2010/28/4/andres_lepage_DSCN0571.jpg,,CENTRO,0.334,0.363,0.33,
29,MIRADOR,-33.020388,-71.562407,MARINA,72,Viña del Mar,8,1.21216836538385,2.37749360403824,,/data/tools/geoexplorer/Chile-NIST/photos/Maule.Chile.2010/29/4/andres_lepage_DSCN0010.jpg,,CENTRO,0.334,0.363,0.33,
38,ISAMAR,-33.018931,-71.558806,SAN MARTIN,236,Viña del Mar,8,1.02892671978436,2.74498535393592,/data/tools/geoexplorer/Chile-NIST/general_drawings/38/9/fourth_story_plan.pdf,/data/tools/geoexplorer/Chile-NIST/photos/Maule.Chile.2010/38/4/andres_lepage_DSCN0390.jpg,,CENTRO,0.334,0.363,0.33,
40,ANTUMALAL,-33.014908,-71.556543,AV. PERU,680,Viña del Mar,8,1.27356602521957,3.18295703519313,/data/tools/geoexplorer/Chile-NIST/general_drawings/40/9/typical_plan_architectural.pdf,/data/tools/geoexplorer/Chile-NIST/photos/Maule.Chile.2010/40/4/andres_lepage_DSCN0565.jpg,,CENTRO,0.334,0.363,0.33,
42,VILLA REAL,-33.017973,-71.555343,4 PONIENTE,390,Viña del Mar,8,0.918247410258866,3.07250927091743,/data/tools/geoexplorer/Chile-NIST/general_drawings/42/10/1st_and_2nd_story_plans_532.pdf\n/data/tools/geoexplorer/Chile-NIST/general_drawings/42/9/second_to_sixth_story_plan_architectural.pdf,/data/tools/geoexplorer/Chile-NIST/photos/Maule.Chile.2010/42/4/andres_lepage_DSCN0220.jpg,/data/tools/geoexplorer/Chile-NIST/photos/Maule.Chile.2010/42/4/andres_lepage_DSCN0143.jpg,CENTRO,0.334,0.363,0.33,
48,LAS PALMAS,-33.020697,-71.562088,MARINA,80,Viña del Mar,8,1.17026162801861,2.38166914900134,/data/tools/geoexplorer/Chile-NIST/general_drawings/48/9/typical_plan.pdf,/data/tools/geoexplorer/Chile-NIST/photos/Maule.Chile.2010/48/4/andres_lepage_DSCN0013.jpg,,CENTRO,0.334,0.363,0.33,
49,COPACABANA,-33.021058,-71.561709,MARINA,84,Viña del Mar,8,1.12111742230058,2.38812306494349,/data/tools/geoexplorer/Chile-NIST/general_drawings/49/9/second_story_plan.pdf,/data/tools/geoexplorer/Chile-NIST/photos/Maule.Chile.2010/49/4/andres_lepage_DSCN0020.jpg,,CENTRO,0.334,0.363,0.33,
57,ALTAMAR,-33.015838,-71.556724,SAN MARTIN,575,Viña del Mar,8,1.18828718877523,3.10528765141668,/data/tools/geoexplorer/Chile-NIST/general_drawings/57/9/typical_plan.pdf,/data/tools/geoexplorer/Chile-NIST/photos/Maule.Chile.2010/57/5/santiago_pujol_IMG_0915.JPG,,CENTRO,0.334,0.363,0.33,
58,LOS ALAMOS,,,3 NORTE,207,Viña del Mar,,,,/data/tools/geoexplorer/Chile-NIST/general_drawings/58/9/first_story_plan.pdf,/data/tools/geoexplorer/Chile-NIST/photos/Valparaiso.Chile.1985/58/9/srs_534_los_alamos1.jpg,,,,,,
59,LAS TERRAZAS,,,5 PONIENTE,336,Viña del Mar,,,,/data/tools/geoexplorer/Chile-NIST/general_drawings/59/9/first_story_plan.pdf\n/data/tools/geoexplorer/Chile-NIST/general_drawings/59/9/typical_plan.pdf,/data/tools/geoexplorer/Chile-NIST/photos/Maule.Chile.2010/59/40/jon_heintz_DSC05868.JPG,,,,,,
59,LAS TERRAZAS,,,5 PONIENTE,336,Viña del Mar,,,,/data/tools/geoexplorer/Chile-NIST/general_drawings/59/9/first_story_plan.pdf\n/data/tools/geoexplorer/Chile-NIST/general_drawings/59/9/typical_plan.pdf,/data/tools/geoexplorer/Chile-NIST/photos/Maule.Chile.2010/59/40/jon_heintz_DSC05868.JPG,,,,,,
60,EL MAR,,,VICUNA MACKENNA,S/N,Viña del Mar,,,,/data/tools/geoexplorer/Chile-NIST/general_drawings/60/9/first_story_plan.pdf,/data/tools/geoexplorer/Chile-NIST/photos/Valparaiso.Chile.1985/60/9/srs_534_el_mar1.jpg,,,,,,
61,ANCONA,,,7 NORTE,65,Viña del Mar,,,,/data/tools/geoexplorer/Chile-NIST/general_drawings/61/9/first_story_plan.pdf,/data/tools/geoexplorer/Chile-NIST/photos/Maule.Chile.2010/61/4/andres_lepage_DSCN0586.jpg,,,,,,
61,ANCONA,,,7 NORTE,65,Viña del Mar,,,,/data/tools/geoexplorer/Chile-NIST/general_drawings/61/9/first_story_plan.pdf,/data/tools/geoexplorer/Chile-NIST/photos/Maule.Chile.2010/61/4/andres_lepage_DSCN0586.jpg,,,,,,
62,MARINA,,,MARINA,94,Viña del Mar,,,,/data/tools/geoexplorer/Chile-NIST/general_drawings/62/9/fifth_and_sixth_story_plan.pdf,/data/tools/geoexplorer/Chile-NIST/photos/Valparaiso.Chile.1985/62/9/srs_534_marina1.jpg,,,,,,
63,SAUSALITO,,,7 NORTE,52,Viña del Mar,,,,/data/tools/geoexplorer/Chile-NIST/general_drawings/63/9/second_story_plan.pdf,/data/tools/geoexplorer/Chile-NIST/photos/Valparaiso.Chile.1985/63/9/srs_534_sausalito1.jpg,,,,,,
64,FONTANA,-33.020175,-71.559725,2 NORTE,17,Viña del Mar,8,1.00853237628034,2.59654693673954,/data/tools/geoexplorer/Chile-NIST/general_drawings/64/9/fourth_story_plan.pdf,/data/tools/geoexplorer/Chile-NIST/photos/Maule.Chile.2010/64/4/andres_lepage_DSCN0421.jpg,,CENTRO,0.334,0.363,0.33,
71,RIVIERA,-33.019547,-71.558898,3 NORTE,60,Viña del Mar,8,0.989564680561198,2.69938358866416,/data/tools/geoexplorer/Chile-NIST/general_drawings/71/9/first_story_plan.pdf,/data/tools/geoexplorer/Chile-NIST/photos/Maule.Chile.2010/71/4/andres_lepage_DSCN0397.jpg,,CENTRO,0.334,0.363,0.33,
84,MONTE CARLO,-33.015895,-71.555983,6 NORTE,241 - 289,Viña del Mar,8,1.15203593932581,3.15624764989268,/data/tools/geoexplorer/Chile-NIST/general_drawings/84/9/typical_plan.pdf,/data/tools/geoexplorer/Chile-NIST/photos/Maule.Chile.2010/84/4/andres_lepage_DSCN0192.jpg,,CENTRO,0.334,0.363,0.33,
86,ROTONDA,-33.019764,-71.559271,SAN MARTIN,160 - 172,Viña del Mar,8,1.00133302811178,2.6570636403067,/data/tools/geoexplorer/Chile-NIST/general_drawings/86/9/first_story_plan.pdf,/data/tools/geoexplorer/Chile-NIST/photos/Maule.Chile.2010/86/4/andres_lepage_DSCN0408.jpg,,CENTRO,0.334,0.363,0.33,
91,CAPRI,-33.015696,-71.556613,SAN MARTIN,563,Viña del Mar,8,1.19757125672473,3.12316237677036,/data/tools/geoexplorer/Chile-NIST/general_drawings/91/9/sixth_story_plan.pdf,/data/tools/geoexplorer/Chile-NIST/photos/Maule.Chile.2010/91/4/andres_lepage_DSCN0575.jpg,/data/tools/geoexplorer/Chile-NIST/photos/Maule.Chile.2010/91/5/santiago_pujol_IMG_0917.JPG,CENTRO,0.334,0.363,0.33,
102,VERONA,-33.014217,-71.554532,SAN MARTIN,734,Viña del Mar,8,1.28055280598076,3.37733361383754,,/data/tools/geoexplorer/Chile-NIST/photos/Maule.Chile.2010/102/40/jon_heintz_DSC06001.JPG,,CENTRO,0.334,0.363,0.33,
179,Condominio Alto Rio,-36.827949,-73.061822,Arturo Prat,776,Concepcion,25,1.20363834359778,,"/data/tools/geoexplorer/Chile-NIST/general_drawings/179/43/PL-22-ELEV-5 (ARdocumentation, ARdrawings, ARdeveloper, ARstructural).dwg\n/data/tools/geoexplorer/Chile-NIST/general_drawings/179/43/PL-23-ELEV-8 (ARdocumentation, ARdrawings, ARdeveloper, ARstructural).dwg\n/data/tools/geoexplorer/Chile-NIST/general_drawings/179/43/PL-24-ELEV-11 (ARdocumentation, ARdrawings, ARdeveloper, ARstructural).dwg\n/data/tools/geoexplorer/Chile-NIST/general_drawings/179/43/PL-25-ELEV-13 (ARdocumentation, ARdrawings, ARdeveloper, ARstructural).dwg\n/data/tools/geoexplorer/Chile-NIST/general_drawings/179/43/PL-26-ELEV-4 (ARdocumentation, ARdrawings, ARdeveloper, ARstructural).dwg\n/data/tools/geoexplorer/Chile-NIST/general_drawings/179/43/PL-27-ELEV-17 (ARdocumentation, ARdrawings, ARdeveloper, ARstructural).dwg\n/data/tools/geoexplorer/Chile-NIST/general_drawings/179/43/PL-28-ELEV-20 (ARdocumentation, ARdrawings, ARdeveloper, ARstructural).dwg\n/data/tools/geoexplorer/Chile-NIST/general_drawings/179/43/PL-29-ELEV-24 (ARdocumentation, ARdrawings, ARdeveloper, ARstructural).dwg\n/data/tools/geoexplorer/Chile-NIST/general_drawings/179/43/PL-30-ELEV-I (ARdocumentation, ARdrawings, ARdeveloper, ARstructural).dwg\n/data/tools/geoexplorer/Chile-NIST/general_drawings/179/43/PL-31-ELEV-A (ARdocumentation, ARdrawings, ARdeveloper, ARstructural).dwg\n/data/tools/geoexplorer/Chile-NIST/general_drawings/179/43/PL-32-ELEV-E-D (ARdocumentation, ARdrawings, ARdeveloper, ARstructural).dwg\n/data/tools/geoexplorer/Chile-NIST/general_drawings/179/43/PL-33-ELEV-C (ARdocumentation, ARdrawings, ARdeveloper, ARstructural).dwg\n/data/tools/geoexplorer/Chile-NIST/general_drawings/179/43/PL-ESC-A (ARdocumentation, ARdrawings, ARdeveloper, ARstructural).dwg\n/data/tools/geoexplorer/Chile-NIST/general_drawings/179/43/PL-ESC-B (ARdocumentation, ARdrawings, ARdeveloper, ARstructural).dwg\n/data/tools/geoexplorer/Chile-NIST/general_drawings/179/43/PL-ESTR-12P-08 (ARdocumentation, ARdrawings, ARdeveloper, ARstructural).dwg\n/data/tools/geoexplorer/Chile-NIST/general_drawings/179/43/PL-ESTR-13P-09 (ARdocumentation, ARdrawings, ARdeveloper, ARstructural).dwg\n/data/tools/geoexplorer/Chile-NIST/general_drawings/179/43/PL-ESTR-14P-10 (ARdocumentation, ARdrawings, ARdeveloper, ARstructural).dwg\n/data/tools/geoexplorer/Chile-NIST/general_drawings/179/43/PL-ESTR-15P-11 (ARdocumentation, ARdrawings, ARdeveloper, ARstructural).dwg\n/data/tools/geoexplorer/Chile-NIST/general_drawings/179/43/PL-ESTR-1P-05 (ARdocumentation, ARdrawings, ARdeveloper, ARstructural).dwg\n/data/tools/geoexplorer/Chile-NIST/general_drawings/179/43/PL-ESTR-2P-06 (ARdocumentation, ARdrawings, ARdeveloper, ARstructural).dwg\n/data/tools/geoexplorer/Chile-NIST/general_drawings/179/43/PL-ESTR-3P@11P-07 (ARdocumentation, ARdrawings, ARdeveloper, ARstructural).dwg\n/data/tools/geoexplorer/Chile-NIST/general_drawings/179/43/PL-ESTR-MAQUI-11 (ARdocumentation, ARdrawings, ARdeveloper, ARstructural).dwg\n/data/tools/geoexplorer/Chile-NIST/general_drawings/179/43/PL-ESTR-SUB-1-04 (ARdocumentation, ARdrawings, ARdeveloper, ARstructural).dwg\n/data/tools/geoexplorer/Chile-NIST/general_drawings/179/43/PL-ESTR-SUB-2-03 (ARdocumentation, ARdrawings, ARdeveloper, ARstructural).dwg\n/data/tools/geoexplorer/Chile-NIST/general_drawings/179/43/PL-FUNDACION (ARdocumentation, ARdrawings, ARdeveloper, ARstructural).dwg\n/data/tools/geoexplorer/Chile-NIST/general_drawings/179/43/PL-LOSA-FUNDACION (ARdocumentation, ARdrawings, ARdeveloper, ARstructural).DWG\n/data/tools/geoexplorer/Chile-NIST/general_drawings/179/43/drawingAltoRio (ARdocumentation, ARdrawings, ARasBuilt (incomplete).pdf\n/data/tools/geoexplorer/Chile-NIST/general_drawings/179/43/README.TXT",/data/tools/geoexplorer/Chile-NIST/photos/Maule.Chile.2010/179/3/gabriel_alarcon_02212009210.jpg,/data/tools/geoexplorer/Chile-NIST/photos/Maule.Chile.2010/179/6/patricio_bonelli_IMG_3673.JPG,COLEGIO INMACULADA,0.402,,0.68,
180,Edificio de Ministerio de Obras Publica,-36.830708,-73.058743,Av. Arturo Prat,501,Concepcion,25,0.973648837535404,,,/data/tools/geoexplorer/Chile-NIST/photos/Maule.Chile.2010/180/1/jay_harris_Edificio de Ministerio de Obras Publica - 0001 - JLH.JPG,,COLEGIO INMACULADA,0.402,,0.68,
181,Independencia,-36.831751,-73.059099,Av Liberador Bernardo O'Higgins,,Concepcion,25,1.04335963363525,,/data/tools/geoexplorer/Chile-NIST/general_drawings/181/6/README.TXT\n/data/tools/geoexplorer/Chile-NIST/general_drawings/181/6/T-EI-01.dwg\n/data/tools/geoexplorer/Chile-NIST/general_drawings/181/6/T-EI-02.dwg\n/data/tools/geoexplorer/Chile-NIST/general_drawings/181/6/T-EI-03.dwg\n/data/tools/geoexplorer/Chile-NIST/general_drawings/181/6/T-EI-04.dwg\n/data/tools/geoexplorer/Chile-NIST/general_drawings/181/6/T-EI-05.dwg\n/data/tools/geoexplorer/Chile-NIST/general_drawings/181/6/T-EI-06.dwg\n/data/tools/geoexplorer/Chile-NIST/general_drawings/181/6/T-EI-07.dwg\n/data/tools/geoexplorer/Chile-NIST/general_drawings/181/6/T-EI-08(1).dwg\n/data/tools/geoexplorer/Chile-NIST/general_drawings/181/6/T-EI-09(2).dwg\n/data/tools/geoexplorer/Chile-NIST/general_drawings/181/6/T-EI-10(2'-3-6).dwg\n/data/tools/geoexplorer/Chile-NIST/general_drawings/181/6/T-EI-11(4).dwg\n/data/tools/geoexplorer/Chile-NIST/general_drawings/181/6/T-EI-12(5).dwg\n/data/tools/geoexplorer/Chile-NIST/general_drawings/181/6/T-EI-13(5').dwg\n/data/tools/geoexplorer/Chile-NIST/general_drawings/181/6/T-EI-14(7-7'-8-8').dwg\n/data/tools/geoexplorer/Chile-NIST/general_drawings/181/6/T-EI-15(9).dwg\n/data/tools/geoexplorer/Chile-NIST/general_drawings/181/6/T-EI-16(9'-10).dwg\n/data/tools/geoexplorer/Chile-NIST/general_drawings/181/6/T-EI-17(11-12).dwg\n/data/tools/geoexplorer/Chile-NIST/general_drawings/181/6/T-EI-18(13-14-16).dwg\n/data/tools/geoexplorer/Chile-NIST/general_drawings/181/6/T-EI-19(1'-15).dwg\n/data/tools/geoexplorer/Chile-NIST/general_drawings/181/6/T-EI-20(A).dwg\n/data/tools/geoexplorer/Chile-NIST/general_drawings/181/6/T-EI-21(D-D').dwg\n/data/tools/geoexplorer/Chile-NIST/general_drawings/181/6/T-EI-22(E-F).dwg\n/data/tools/geoexplorer/Chile-NIST/general_drawings/181/6/T-EI-23(F'-G-G').dwg\n/data/tools/geoexplorer/Chile-NIST/general_drawings/181/6/T-EI-24(H-I).dwg\n/data/tools/geoexplorer/Chile-NIST/general_drawings/181/6/T-EI-25(J-K).dwg\n/data/tools/geoexplorer/Chile-NIST/general_drawings/181/6/T-EI-26(L-M).dwg\n/data/tools/geoexplorer/Chile-NIST/general_drawings/181/6/T-EI-27(N-O).dwg\n/data/tools/geoexplorer/Chile-NIST/general_drawings/181/6/T-EI-28(P-Q-R).dwg,/data/tools/geoexplorer/Chile-NIST/photos/Maule.Chile.2010/181/1/jay_harris_Edificio Independencia - 0068 - JLH.JPG,/data/tools/geoexplorer/Chile-NIST/photos/Maule.Chile.2010/181/1/jay_harris_Edificio Independencia - 0007 - JLH.JPG,COLEGIO INMACULADA,0.402,,0.68,
182,Plaza Del Rio,-36.820514,-73.061961,Calle Obispo Salas,1343,Concepcion,25,1.47988955193215,,"/data/tools/geoexplorer/Chile-NIST/general_drawings/182/43/A00 (PRdocumentation, PRdrawings, PRmunicipalPermit, PRarchitectural).PDF\n/data/tools/geoexplorer/Chile-NIST/general_drawings/182/43/A01 (PRdocumentation, PRdrawings, PRmunicipalPermit, PRarchitectural).PDF\n/data/tools/geoexplorer/Chile-NIST/general_drawings/182/43/A02 (PRdocumentation, PRdrawings, PRmunicipalPermit, PRarchitectural).PDF\n/data/tools/geoexplorer/Chile-NIST/general_drawings/182/43/A03 (PRdocumentation, PRdrawings, PRmunicipalPermit, PRarchitectural).PDF\n/data/tools/geoexplorer/Chile-NIST/general_drawings/182/43/A04 (PRdocumentation, PRdrawings, PRmunicipalPermit, PRarchitectural).PDF\n/data/tools/geoexplorer/Chile-NIST/general_drawings/182/43/A05 (PRdocumentation, PRdrawings, PRmunicipalPermit, PRarchitectural).PDF\n/data/tools/geoexplorer/Chile-NIST/general_drawings/182/43/A06 (PRdocumentation, PRdrawings, PRmunicipalPermit, PRarchitectural).PDF\n/data/tools/geoexplorer/Chile-NIST/general_drawings/182/43/A07 (PRdocumentation, PRdrawings, PRmunicipalPermit, PRarchitectural).PDF\n/data/tools/geoexplorer/Chile-NIST/general_drawings/182/43/A08 (PRdocumentation, PRdrawings, PRmunicipalPermit, PRarchitectural).PDF\n/data/tools/geoexplorer/Chile-NIST/general_drawings/182/43/A09 (PRdocumentation, PRdrawings, PRmunicipalPermit, PRarchitectural).PDF\n/data/tools/geoexplorer/Chile-NIST/general_drawings/182/43/A10 (PRdocumentation, PRdrawings, PRmunicipalPermit, PRarchitectural).PDF\n/data/tools/geoexplorer/Chile-NIST/general_drawings/182/43/A11 (PRdocumentation, PRdrawings, PRmunicipalPermit, PRarchitectural).PDF\n/data/tools/geoexplorer/Chile-NIST/general_drawings/182/43/A12 (PRdocumentation, PRdrawings, PRmunicipalPermit, PRarchitectural).PDF\n/data/tools/geoexplorer/Chile-NIST/general_drawings/182/43/AL1 (PRdocumentation, PRdrawings, PRmunicipalPermit, PRarchitectural).PDF\n/data/tools/geoexplorer/Chile-NIST/general_drawings/182/43/AS1 (PRdocumentation, PRdrawings, PRmunicipalPermit, PRarchitectural).PDF\n/data/tools/geoexplorer/Chile-NIST/general_drawings/182/43/AS2 (PRdocumentation, PRdrawings, PRmunicipalPermit, PRarchitectural).PDF\n/data/tools/geoexplorer/Chile-NIST/general_drawings/182/43/E01 (PRdocumentation, PRdrawings, PRmunicipalPermit, PRstructural).PDF\n/data/tools/geoexplorer/Chile-NIST/general_drawings/182/43/E02 (PRdocumentation, PRdrawings, PRmunicipalPermit, PRstructural).PDF\n/data/tools/geoexplorer/Chile-NIST/general_drawings/182/43/E03 (PRdocumentation, PRdrawings, PRmunicipalPermit, PRstructural).PDF\n/data/tools/geoexplorer/Chile-NIST/general_drawings/182/43/E04 (PRdocumentation, PRdrawings, PRmunicipalPermit, PRstructural).PDF\n/data/tools/geoexplorer/Chile-NIST/general_drawings/182/43/E05 (PRdocumentation, PRdrawings, PRmunicipalPermit, PRstructural).PDF\n/data/tools/geoexplorer/Chile-NIST/general_drawings/182/43/E06 (PRdocumentation, PRdrawings, PRmunicipalPermit, PRstructural).PDF\n/data/tools/geoexplorer/Chile-NIST/general_drawings/182/43/E07 (PRdocumentation, PRdrawings, PRmunicipalPermit, PRstructural).PDF\n/data/tools/geoexplorer/Chile-NIST/general_drawings/182/43/E08 (PRdocumentation, PRdrawings, PRmunicipalPermit, PRstructural).PDF\n/data/tools/geoexplorer/Chile-NIST/general_drawings/182/43/E09 (PRdocumentation, PRdrawings, PRmunicipalPermit, PRstructural).PDF\n/data/tools/geoexplorer/Chile-NIST/general_drawings/182/43/E10 (PRdocumentation, PRdrawings, PRmunicipalPermit, PRstructural).PDF\n/data/tools/geoexplorer/Chile-NIST/general_drawings/182/43/E11 (PRdocumentation, PRdrawings, PRmunicipalPermit, PRstructural).PDF\n/data/tools/geoexplorer/Chile-NIST/general_drawings/182/43/E12 (PRdocumentation, PRdrawings, PRmunicipalPermit, PRstructural).PDF\n/data/tools/geoexplorer/Chile-NIST/general_drawings/182/43/E13 (PRdocumentation, PRdrawings, PRmunicipalPermit, PRstructural).PDF\n/data/tools/geoexplorer/Chile-NIST/general_drawings/182/43/E14 (PRdocumentation, PRdrawings, PRmunicipalPermit, PRstructural).PDF\n/data/tools/geoexplorer/Chile-NIST/general_drawings/182/43/E15 (PRdocumentation, PRdrawings, PRmunicipalPermit, PRstructural).PDF\n/data/tools/geoexplorer/Chile-NIST/general_drawings/182/43/E16 (PRdocumentation, PRdrawings, PRmunicipalPermit, PRstructural).PDF\n/data/tools/geoexplorer/Chile-NIST/general_drawings/182/43/E17 (PRdocumentation, PRdrawings, PRmunicipalPermit, PRstructural).PDF\n/data/tools/geoexplorer/Chile-NIST/general_drawings/182/43/E18 (PRdocumentation, PRdrawings, PRmunicipalPermit, PRstructural).PDF\n/data/tools/geoexplorer/Chile-NIST/general_drawings/182/43/E19 (PRdocumentation, PRdrawings, PRmunicipalPermit, PRstructural).PDF\n/data/tools/geoexplorer/Chile-NIST/general_drawings/182/43/E20 (PRdocumentation, PRdrawings, PRmunicipalPermit, PRstructural).PDF\n/data/tools/geoexplorer/Chile-NIST/general_drawings/182/43/L1-25_PAISAJISMO (PRdocumentation, PRdrawings, PRdeveloper, PRarchitectural).dwg\n/data/tools/geoexplorer/Chile-NIST/general_drawings/182/43/L2-25_SUP.MUNICIPAL (PRdocumentation, PRdrawings, PRdeveloper, PRarchitectural).dwg\n/data/tools/geoexplorer/Chile-NIST/general_drawings/182/43/L3-25_PL1ºNIVEL (PRdocumentation, PRdrawings, PRdeveloper, PRarchitectural).dwg\n/data/tools/geoexplorer/Chile-NIST/general_drawings/182/43/L4-25_PL2ºY3ºNIVEL (PRdocumentation, PRdrawings, PRdeveloper, PRarchitectural).dwg\n/data/tools/geoexplorer/Chile-NIST/general_drawings/182/43/L5-25_PL4ºa7ºy8º12ºNIVEL (PRdocumentation, PRdrawings, PRdeveloper, PRarchitectural).dwg\n/data/tools/geoexplorer/Chile-NIST/general_drawings/182/43/L6-25_PL13ºyTECHUMBRE (PRdocumentation, PRdrawings, PRdeveloper, PRarchitectural).dwg\n/data/tools/geoexplorer/Chile-NIST/general_drawings/182/43/L7y8-25_Elevaciones (PRdocumentation, PRdrawings, PRdeveloper, PRarchitectural).dwg\n/data/tools/geoexplorer/Chile-NIST/general_drawings/182/43/T-PDR-01M (PRdocumentation, PRdrawings, PRdeveloper, PRstructural).dwg\n/data/tools/geoexplorer/Chile-NIST/general_drawings/182/43/T-PDR-02 (PRdocumentation, PRdrawings, PRdeveloper, PRstructural).dwg\n/data/tools/geoexplorer/Chile-NIST/general_drawings/182/43/T-PDR-03M (PRdocumentation, PRdrawings, PRdeveloper, PRstructural).dwg\n/data/tools/geoexplorer/Chile-NIST/general_drawings/182/43/T-PDR-04M (PRdocumentation, PRdrawings, PRdeveloper, PRstructural).dwg\n/data/tools/geoexplorer/Chile-NIST/general_drawings/182/43/T-PDR-05M (PRdocumentation, PRdrawings, PRdeveloper, PRstructural).dwg\n/data/tools/geoexplorer/Chile-NIST/general_drawings/182/43/T-PDR-06M (PRdocumentation, PRdrawings, PRdeveloper, PRstructural).dwg\n/data/tools/geoexplorer/Chile-NIST/general_drawings/182/43/T-PDR-07M (PRdocumentation, PRdrawings, PRdeveloper, PRstructural).dwg\n/data/tools/geoexplorer/Chile-NIST/general_drawings/182/43/T-PDR-08M (PRdocumentation, PRdrawings, PRdeveloper, PRstructural).dwg\n/data/tools/geoexplorer/Chile-NIST/general_drawings/182/43/T-PDR-09M (PRdocumentation, PRdrawings, PRdeveloper, PRstructural).dwg\n/data/tools/geoexplorer/Chile-NIST/general_drawings/182/43/T-PDR-10 (PRdocumentation, PRdrawings, PRdeveloper, PRstructural).dwg\n/data/tools/geoexplorer/Chile-NIST/general_drawings/182/43/T-PDR-11 (PRdocumentation, PRdrawings, PRdeveloper, PRstructural).dwg\n/data/tools/geoexplorer/Chile-NIST/general_drawings/182/43/T-PDR-12 (PRdocumentation, PRdrawings, PRdeveloper, PRstructural).dwg\n/data/tools/geoexplorer/Chile-NIST/general_drawings/182/43/T-PDR-13 (PRdocumentation, PRdrawings, PRdeveloper, PRstructural).dwg\n/data/tools/geoexplorer/Chile-NIST/general_drawings/182/43/T-PDR-14 (PRdocumentation, PRdrawings, PRdeveloper, PRstructural).dwg\n/data/tools/geoexplorer/Chile-NIST/general_drawings/182/43/T-PDR-15 (PRdocumentation, PRdrawings, PRdeveloper, PRstructural).dwg\n/data/tools/geoexplorer/Chile-NIST/general_drawings/182/43/T-PDR-16 (PRdocumentation, PRdrawings, PRdeveloper, PRstructural).dwg\n/data/tools/geoexplorer/Chile-NIST/general_drawings/182/43/T-PDR-17M (PRdocumentation, PRdrawings, PRdeveloper, PRstructural).dwg\n/data/tools/geoexplorer/Chile-NIST/general_drawings/182/43/T-PDR-18 (PRdocumentation, PRdrawings, PRdeveloper, PRstructural).dwg\n/data/tools/geoexplorer/Chile-NIST/general_drawings/182/43/T-PDR-19 (PRdocumentation, PRdrawings, PRdeveloper, PRstructural).dwg\n/data/tools/geoexplorer/Chile-NIST/general_drawings/182/43/T-PDR-20M (PRdocumentation, PRdrawings, PRdeveloper, PRstructural).dwg\n/data/tools/geoexplorer/Chile-NIST/general_drawings/182/43/T-PDR-21 (PRdocumentation, PRdrawings, PRdeveloper, PRstructural).dwg\n/data/tools/geoexplorer/Chile-NIST/general_drawings/182/43/T-PDR-22M (PRdocumentation, PRdrawings, PRdeveloper, PRstructural).dwg\n/data/tools/geoexplorer/Chile-NIST/general_drawings/182/43/T-PDR-23 (PRdocumentation, PRdrawings, PRdeveloper, PRstructural).dwg\n/data/tools/geoexplorer/Chile-NIST/general_drawings/182/43/T-PDR-24 (PRdocumentation, PRdrawings, PRdeveloper, PRstructural).dwg\n/data/tools/geoexplorer/Chile-NIST/general_drawings/182/43/T-PDR-25 (PRdocumentation, PRdrawings, PRdeveloper, PRstructural).dwg\n/data/tools/geoexplorer/Chile-NIST/general_drawings/182/43/T-PDR-26 (PRdocumentation, PRdrawings, PRdeveloper, PRstructural).dwg\n/data/tools/geoexplorer/Chile-NIST/general_drawings/182/43/T-PDR-27M (PRdocumentation, PRdrawings, PRdeveloper, PRstructural).dwg\n/data/tools/geoexplorer/Chile-NIST/general_drawings/182/43/T-PDR-28 (PRdocumentation, PRdrawings, PRdeveloper, PRstructural).dwg\n/data/tools/geoexplorer/Chile-NIST/general_drawings/182/43/T-PDR-29M (PRdocumentation, PRdrawings, PRdeveloper, PRstructural).dwg\n/data/tools/geoexplorer/Chile-NIST/general_drawings/182/43/T-PDR-30 (PRdocumentation, PRdrawings, PRdeveloper, PRstructural).dwg\n/data/tools/geoexplorer/Chile-NIST/general_drawings/182/43/T-PDR-31 (PRdocumentation, PRdrawings, PRdeveloper, PRstructural).dwg\n/data/tools/geoexplorer/Chile-NIST/general_drawings/182/43/T-PDR-32 (PRdocumentation, PRdrawings, PRdeveloper, PRstructural).dwg\n/data/tools/geoexplorer/Chile-NIST/general_drawings/182/43/T-PDR-33 (PRdocumentation, PRdrawings, PRdeveloper, PRstructural).dwg\n/data/tools/geoexplorer/Chile-NIST/general_drawings/182/43/T-PDR-34 (PRdocumentation, PRdrawings, PRdeveloper, PRstructural).dwg\n/data/tools/geoexplorer/Chile-NIST/general_drawings/182/43/T-PDR-35a (PRdocumentation, PRdrawings, PRdeveloper, PRstructural).dwg\n/data/tools/geoexplorer/Chile-NIST/general_drawings/182/43/T-PDR-36a (PRdocumentation, PRdrawings, PRdeveloper, PRstructural).dwg\n/data/tools/geoexplorer/Chile-NIST/general_drawings/182/43/T-PDR-37a (PRdocumentation, PRdrawings, PRdeveloper, PRstructural).dwg\n/data/tools/geoexplorer/Chile-NIST/general_drawings/182/43/README.TXT",/data/tools/geoexplorer/Chile-NIST/photos/Maule.Chile.2010/182/32/latbsdc_PDR-100.jpg,/data/tools/geoexplorer/Chile-NIST/photos/Maule.Chile.2010/182/5/santiago_pujol_IMG_0297.JPG,COLEGIO INMACULADA,0.402,,0.68,
183,Torre Araucana,-36.829615,-73.052295,Lincoyan,334,Concepcion,25,0.393457451833344,,"/data/tools/geoexplorer/Chile-NIST/general_drawings/183/45/0.00 SUPERFICIES.DWG\n/data/tools/geoexplorer/Chile-NIST/general_drawings/183/45/0.01 ESTUDIO SOMBRA.DWG\n/data/tools/geoexplorer/Chile-NIST/general_drawings/183/45/1.00 SUB -3.DWG\n/data/tools/geoexplorer/Chile-NIST/general_drawings/183/45/1.01 SUB -2.DWG\n/data/tools/geoexplorer/Chile-NIST/general_drawings/183/45/1.02 SUB -01.DWG\n/data/tools/geoexplorer/Chile-NIST/general_drawings/183/45/1.03 PISO 1 ACCESO.DWG\n/data/tools/geoexplorer/Chile-NIST/general_drawings/183/45/1.04 2° PISO.DWG\n/data/tools/geoexplorer/Chile-NIST/general_drawings/183/45/1.05 3º PISO.DWG\n/data/tools/geoexplorer/Chile-NIST/general_drawings/183/45/1.06 4° PISO.DWG\n/data/tools/geoexplorer/Chile-NIST/general_drawings/183/45/1.07 5º PISO.DWG\n/data/tools/geoexplorer/Chile-NIST/general_drawings/183/45/1.08 6° PISO.DWG\n/data/tools/geoexplorer/Chile-NIST/general_drawings/183/45/1.09 7º PISO.DWG\n/data/tools/geoexplorer/Chile-NIST/general_drawings/183/45/1.10 8° PISO.DWG\n/data/tools/geoexplorer/Chile-NIST/general_drawings/183/45/1.11 9º PISO.DWG\n/data/tools/geoexplorer/Chile-NIST/general_drawings/183/45/1.12 10° PISO.DWG\n/data/tools/geoexplorer/Chile-NIST/general_drawings/183/45/1.14 12º PISO.DWG\n/data/tools/geoexplorer/Chile-NIST/general_drawings/183/45/1.15 13º PISO.DWG\n/data/tools/geoexplorer/Chile-NIST/general_drawings/183/45/1.16 14º PISO.DWG\n/data/tools/geoexplorer/Chile-NIST/general_drawings/183/45/1.17 15º PISO.DWG\n/data/tools/geoexplorer/Chile-NIST/general_drawings/183/45/1.18 CUBIERTA.DWG\n/data/tools/geoexplorer/Chile-NIST/general_drawings/183/45/27337 - 01 GENERAL.dwg\n/data/tools/geoexplorer/Chile-NIST/general_drawings/183/45/27337 - 02 FUNDACIONES.dwg\n/data/tools/geoexplorer/Chile-NIST/general_drawings/183/45/27337 - 03 EST. 3º SUBT(med-fierros).dwg\n/data/tools/geoexplorer/Chile-NIST/general_drawings/183/45/27337 - 04 EST. 2º SUBT(med-fierros).dwg\n/data/tools/geoexplorer/Chile-NIST/general_drawings/183/45/27337 - 05 - 05' EST. 1º SUBT(med-fierros).dwg\n/data/tools/geoexplorer/Chile-NIST/general_drawings/183/45/27337 - 06 EST. 1º PISO(med-fierros).dwg\n/data/tools/geoexplorer/Chile-NIST/general_drawings/183/45/27337 - 07 EST. 2º-3º PISO(medidas).dwg\n/data/tools/geoexplorer/Chile-NIST/general_drawings/183/45/27337 - 08 EST. 4º-5º PISO(medidas).dwg\n/data/tools/geoexplorer/Chile-NIST/general_drawings/183/45/27337 - 09 EST. 6º-7º PISO(medidas).dwg\n/data/tools/geoexplorer/Chile-NIST/general_drawings/183/45/27337 - 10 EST. 8º-9º PISO(medidas).dwg\n/data/tools/geoexplorer/Chile-NIST/general_drawings/183/45/27337 - 11 EST.10º-11º-12 PISO(medidas).dwg\n/data/tools/geoexplorer/Chile-NIST/general_drawings/183/45/27337 - 12 EST. 2º PISO(fierros).dwg\n/data/tools/geoexplorer/Chile-NIST/general_drawings/183/45/27337 - 13 EST. 3º PISO(fierros).dwg\n/data/tools/geoexplorer/Chile-NIST/general_drawings/183/45/27337 - 14 EST. 4º PISO(fierros).dwg\n/data/tools/geoexplorer/Chile-NIST/general_drawings/183/45/27337 - 15 EST. 5º PISO(fierros).dwg\n/data/tools/geoexplorer/Chile-NIST/general_drawings/183/45/27337 - 16 EST. 6º PISO(fierros).dwg\n/data/tools/geoexplorer/Chile-NIST/general_drawings/183/45/27337 - 17 EST. 7º PISO(fierros).dwg\n/data/tools/geoexplorer/Chile-NIST/general_drawings/183/45/27337 - 18 EST. 8º PISO(fierros).dwg\n/data/tools/geoexplorer/Chile-NIST/general_drawings/183/45/27337 - 19 EST. 9º PISO(fierros).dwg\n/data/tools/geoexplorer/Chile-NIST/general_drawings/183/45/27337 - 20 EST.10º-11º-12º-13º PISO(fierros).dwg\n/data/tools/geoexplorer/Chile-NIST/general_drawings/183/45/27337 - 21 EST.14º-15º PISO(fierros).dwg\n/data/tools/geoexplorer/Chile-NIST/general_drawings/183/45/27337 - 22 LOSA SUBTERRANEOS.dwg\n/data/tools/geoexplorer/Chile-NIST/general_drawings/183/45/27337 - 23 LOSA SUBTERRANEOS.dwg\n/data/tools/geoexplorer/Chile-NIST/general_drawings/183/45/27337 - 24 LOSA 1° PISO.dwg\n/data/tools/geoexplorer/Chile-NIST/general_drawings/183/45/27337 - 25 LOSA 2° PISO.dwg\n/data/tools/geoexplorer/Chile-NIST/general_drawings/183/45/27337 - 26 LOSA 3 PISO.dwg\n/data/tools/geoexplorer/Chile-NIST/general_drawings/183/45/27337 - 27 LOSA  4° PISO.dwg\n/data/tools/geoexplorer/Chile-NIST/general_drawings/183/45/27337 - 28 LOSA 5 PISO.dwg\n/data/tools/geoexplorer/Chile-NIST/general_drawings/183/45/27337 - 29 LOSA  6ºPISO.dwg\n/data/tools/geoexplorer/Chile-NIST/general_drawings/183/45/27337 - 30 LOSA 7º  PISO.dwg\n/data/tools/geoexplorer/Chile-NIST/general_drawings/183/45/27337 - 31 LOSA  8° PISO.dwg\n/data/tools/geoexplorer/Chile-NIST/general_drawings/183/45/27337 - 32 LOSA  9° PISO.dwg\n/data/tools/geoexplorer/Chile-NIST/general_drawings/183/45/27337 - 33 LOSA 10º al 13º PISO.dwg\n/data/tools/geoexplorer/Chile-NIST/general_drawings/183/45/27337 - 34 LOSA 14° PISO.dwg\n/data/tools/geoexplorer/Chile-NIST/general_drawings/183/45/27337 - 35 LOSA 15° PISO.dwg\n/data/tools/geoexplorer/Chile-NIST/general_drawings/183/45/27337 - 36 ESCALERAS.dwg\n/data/tools/geoexplorer/Chile-NIST/general_drawings/183/45/27337 - 37 ESCALERAS.dwg\n/data/tools/geoexplorer/Chile-NIST/general_drawings/183/45/27337 - 38 (ELEVACION EJE 1-2).dwg\n/data/tools/geoexplorer/Chile-NIST/general_drawings/183/45/27337 - 39 (ELEVACION EJE 6).dwg\n/data/tools/geoexplorer/Chile-NIST/general_drawings/183/45/27337 - 40 (ELEVACION EJE 5).dwg\n/data/tools/geoexplorer/Chile-NIST/general_drawings/183/45/27337 - 41 (ELEVACION EJE 7).dwg\n/data/tools/geoexplorer/Chile-NIST/general_drawings/183/45/27337 - 42 (ELEVACION EJE A).dwg\n/data/tools/geoexplorer/Chile-NIST/general_drawings/183/45/27337 - 43 (ELEVACION EJE C').dwg\n/data/tools/geoexplorer/Chile-NIST/general_drawings/183/45/27337 - 44 (ELEVACION EJE H).dwg\n/data/tools/geoexplorer/Chile-NIST/general_drawings/183/45/27337 - 45 (ELEVACION EJE 3-4).dwg\n/data/tools/geoexplorer/Chile-NIST/general_drawings/183/45/27337 - 46 (ELEVACION EJE 8).dwg\n/data/tools/geoexplorer/Chile-NIST/general_drawings/183/45/27337 - 47 (ELEVACION EJE 9).dwg\n/data/tools/geoexplorer/Chile-NIST/general_drawings/183/45/27337 - 48 (ELEVACION EJE B).dwg\n/data/tools/geoexplorer/Chile-NIST/general_drawings/183/45/27337 - 49(ELEVACION EJE D').dwg\n/data/tools/geoexplorer/Chile-NIST/general_drawings/183/45/27337 - 50 (ELEVACION EJE G).dwg\n/data/tools/geoexplorer/Chile-NIST/general_drawings/183/45/27337 - 51 (ELEVACION EJE C).dwg\n/data/tools/geoexplorer/Chile-NIST/general_drawings/183/45/3.00 cortes1.DWG\n/data/tools/geoexplorer/Chile-NIST/general_drawings/183/45/3.01 cortes2.DWG\n/data/tools/geoexplorer/Chile-NIST/general_drawings/183/45/4.00 P. CONTRUCTIVAS SUB -3.DWG\n/data/tools/geoexplorer/Chile-NIST/general_drawings/183/45/4.01 P. CONTRUCTIVAS SUB -1.DWG\n/data/tools/geoexplorer/Chile-NIST/general_drawings/183/45/4.02 P. CONTRUCTIVAS PISOS.DWG\n/data/tools/geoexplorer/Chile-NIST/general_drawings/183/45/4.03 P. CONTRUCTIVAS PISOS.DWG\n/data/tools/geoexplorer/Chile-NIST/general_drawings/183/45/4.04 P. CONTRUCTIVAS PISOS.DWG\n/data/tools/geoexplorer/Chile-NIST/general_drawings/183/45/4.05 P. CONTRUCTIVAS PISOS.DWG\n/data/tools/geoexplorer/Chile-NIST/general_drawings/183/45/4.06 P. CONTRUCTIVAS PISOS.DWG\n/data/tools/geoexplorer/Chile-NIST/general_drawings/183/45/4.07 P. CONTRUCTIVAS PISOS.DWG\n/data/tools/geoexplorer/Chile-NIST/general_drawings/183/45/4.08 P. CONTRUCTIVAS PISOS.DWG\n/data/tools/geoexplorer/Chile-NIST/general_drawings/183/45/4.09 DETALLE PUERTAS Y VENT.DWG\n/data/tools/geoexplorer/Chile-NIST/general_drawings/183/45/4.10 DETALLE DE TABIQUES VI.DWG\n/data/tools/geoexplorer/Chile-NIST/general_drawings/183/45/5.00 PLANTA DE CIELOS -3 -2-1.DWG\n/data/tools/geoexplorer/Chile-NIST/general_drawings/183/45/5.00 PLANTA DE CIELOS -3 -2-1.PDF\n/data/tools/geoexplorer/Chile-NIST/general_drawings/183/45/5.00 PLANTA DE CIELOS -3 -2.DWG\n/data/tools/geoexplorer/Chile-NIST/general_drawings/183/45/5.01 PLANTA DE CIELOS 1, 2, 3.DWG\n/data/tools/geoexplorer/Chile-NIST/general_drawings/183/45/5.01 PLANTA DE CIELOS 1, 2, 3.PDF\n/data/tools/geoexplorer/Chile-NIST/general_drawings/183/45/5.01 PLANTA DE CIELOS 1, 2.DWG\n/data/tools/geoexplorer/Chile-NIST/general_drawings/183/45/5.02 PLANTA DE CIELOS 4, 5, 6.DWG\n/data/tools/geoexplorer/Chile-NIST/general_drawings/183/45/5.02 PLANTA DE CIELOS 4, 5, 6.PDF\n/data/tools/geoexplorer/Chile-NIST/general_drawings/183/45/5.02 PLANTA DE CIELOS 4, 5.DWG\n/data/tools/geoexplorer/Chile-NIST/general_drawings/183/45/5.03 PLANTA DE CIELOS 7, 8, 9.DWG\n/data/tools/geoexplorer/Chile-NIST/general_drawings/183/45/5.03 PLANTA DE CIELOS 7, 8, 9.PDF\n/data/tools/geoexplorer/Chile-NIST/general_drawings/183/45/5.03 PLANTA DE CIELOS 7, 8.DWG\n/data/tools/geoexplorer/Chile-NIST/general_drawings/183/45/5.04 PLANTA DE CIELOS 10, 1.DWG\n/data/tools/geoexplorer/Chile-NIST/general_drawings/183/45/5.05 PLANTA DE CIELOS 13, 1.DWG\n/data/tools/geoexplorer/Chile-NIST/general_drawings/183/45/5.05 PLANTA DE CIELOS 13, 14 , 15.DWG\n/data/tools/geoexplorer/Chile-NIST/general_drawings/183/45/5.05 PLANTA DE CIELOS 13, 14, 15.PDF\n/data/tools/geoexplorer/Chile-NIST/general_drawings/183/45/6.00 ESCANTILLON A-A.DWG\n/data/tools/geoexplorer/Chile-NIST/general_drawings/183/45/6.01 ESCANTILLON B-B.DWG\n/data/tools/geoexplorer/Chile-NIST/general_drawings/183/45/6.02 ESCANTILLON C-C.DWG\n/data/tools/geoexplorer/Chile-NIST/general_drawings/183/45/6.03 ESCANTILLON D-D.DWG\n/data/tools/geoexplorer/Chile-NIST/general_drawings/183/45/6.04 ESCANTILLON E-E.DWG\n/data/tools/geoexplorer/Chile-NIST/general_drawings/183/45/7.00 DETALLES ESCALAS.DWG\n/data/tools/geoexplorer/Chile-NIST/general_drawings/183/45/7.01 DETALLE ESCALERA ESCUL.DWG\n/data/tools/geoexplorer/Chile-NIST/general_drawings/183/45/8.00 DETALLES DE SHAFT- ESC.DWG\n/data/tools/geoexplorer/Chile-NIST/general_drawings/183/45/8.01 DETALLE AUDITORIO.DWG\n/data/tools/geoexplorer/Chile-NIST/general_drawings/183/45/8.02 DETALLE DE ACCESOS-AST.DWG\n/data/tools/geoexplorer/Chile-NIST/general_drawings/183/45/8.03 DETALLES FACHADA LINCO.DWG\n/data/tools/geoexplorer/Chile-NIST/general_drawings/183/45/8.04 DETALLE DE HALL DE ACC.DWG\n/data/tools/geoexplorer/Chile-NIST/general_drawings/183/45/8.05 DETALLE DE MARQUESINAS.DWG\n/data/tools/geoexplorer/Chile-NIST/general_drawings/183/45/8.06 DETALLE DE KITCHENETTE.DWG\n/data/tools/geoexplorer/Chile-NIST/general_drawings/183/45/8.07 DETALLE TERRAZAS.DWG\n/data/tools/geoexplorer/Chile-NIST/general_drawings/183/45/9.00 DETALLES DE BAÑOS 1.DWG\n/data/tools/geoexplorer/Chile-NIST/general_drawings/183/45/9.01 DETALLES DE BAÑOS 2.DWG\n/data/tools/geoexplorer/Chile-NIST/general_drawings/183/45/9.02 DETALLES DE BAÑOS 3.DWG\n/data/tools/geoexplorer/Chile-NIST/general_drawings/183/45/9.03 DETALLES DE BAÑOS 4.DWG\n/data/tools/geoexplorer/Chile-NIST/general_drawings/183/45/9.04 DETALLES DE BAÑOS 5.DWG\n/data/tools/geoexplorer/Chile-NIST/general_drawings/183/45/DETALLE DE CIELO AUDITORIO 14.DWG\n/data/tools/geoexplorer/Chile-NIST/general_drawings/183/45/DETALLE DE CIELO AUDITORIO 14.PDF\n/data/tools/geoexplorer/Chile-NIST/general_drawings/183/45/DETALLE PUERTAS.DWG\n/data/tools/geoexplorer/Chile-NIST/general_drawings/183/45/DETALLE PUERTAS.PDF\n/data/tools/geoexplorer/Chile-NIST/general_drawings/183/45/EETT LA Modif. 15 Pisos.pdf\n/data/tools/geoexplorer/Chile-NIST/general_drawings/183/45/ELEV MOD TRUEBOND (1).DWG\n/data/tools/geoexplorer/Chile-NIST/general_drawings/183/45/ELEV MOD TRUEBOND.DWG\n/data/tools/geoexplorer/Chile-NIST/general_drawings/183/45/README.TXT",/data/tools/geoexplorer/Chile-NIST/photos/Maule.Chile.2010/183/1/jay_harris_Torre Araucana - 00222 - JLH.JPG,/data/tools/geoexplorer/Chile-NIST/photos/Maule.Chile.2010/183/1/jay_harris_Torre Araucana - 0046 - JLH.JPG,COLEGIO INMACULADA,0.402,,0.68,
184,Torre O'Higgins,-36.829452,-73.055115,Av Liberador Bernardo O'Higgins,241,Concepcion,25,0.624913522391941,,"/data/tools/geoexplorer/Chile-NIST/general_drawings/184/43/A01 (TOdocumentation, TOdrawings, TOmunicipalPermit, TOarchitectural).PDF\n/data/tools/geoexplorer/Chile-NIST/general_drawings/184/43/A02 (TOdocumentation, TOdrawings, TOmunicipalPermit, TOarchitectural).PDF\n/data/tools/geoexplorer/Chile-NIST/general_drawings/184/43/A03 (TOdocumentation, TOdrawings, TOmunicipalPermit, TOarchitectural).PDF\n/data/tools/geoexplorer/Chile-NIST/general_drawings/184/43/A04 (TOdocumentation, TOdrawings, TOmunicipalPermit, TOarchitectural).PDF\n/data/tools/geoexplorer/Chile-NIST/general_drawings/184/43/A05 (TOdocumentation, TOdrawings, TOmunicipalPermit, TOarchitectural).PDF\n/data/tools/geoexplorer/Chile-NIST/general_drawings/184/43/A06 (TOdocumentation, TOdrawings, TOmunicipalPermit, TOarchitectural).PDF\n/data/tools/geoexplorer/Chile-NIST/general_drawings/184/43/A07 (TOdocumentation, TOdrawings, TOmunicipalPermit, TOarchitectural).PDF\n/data/tools/geoexplorer/Chile-NIST/general_drawings/184/43/A08 (TOdocumentation, TOdrawings, TOmunicipalPermit, TOarchitectural).PDF\n/data/tools/geoexplorer/Chile-NIST/general_drawings/184/43/A09 (TOdocumentation, TOdrawings, TOmunicipalPermit, TOarchitectural).PDF\n/data/tools/geoexplorer/Chile-NIST/general_drawings/184/43/A10 (TOdocumentation, TOdrawings, TOmunicipalPermit, TOarchitectural).PDF\n/data/tools/geoexplorer/Chile-NIST/general_drawings/184/43/A11 (TOdocumentation, TOdrawings, TOmunicipalPermit, TOarchitectural).PDF\n/data/tools/geoexplorer/Chile-NIST/general_drawings/184/43/A12 (TOdocumentation, TOdrawings, TOmunicipalPermit, TOarchitectural).PDF\n/data/tools/geoexplorer/Chile-NIST/general_drawings/184/43/A13 (TOdocumentation, TOdrawings, TOmunicipalPermit, TOarchitectural).PDF\n/data/tools/geoexplorer/Chile-NIST/general_drawings/184/43/A14 (TOdocumentation, TOdrawings, TOmunicipalPermit, TOarchitectural).PDF\n/data/tools/geoexplorer/Chile-NIST/general_drawings/184/43/A15 (TOdocumentation, TOdrawings, TOmunicipalPermit, TOarchitectural).PDF\n/data/tools/geoexplorer/Chile-NIST/general_drawings/184/43/E Concepcion Fundaciones+pluma (TOdocumentation, TOdrawings, TOdeveloper, TOstructural).dwg\n/data/tools/geoexplorer/Chile-NIST/general_drawings/184/43/E Concepcion Plantas losas nuevas (TOdocumentation, TOdrawings, TOdeveloper, TOstructural).dwg\n/data/tools/geoexplorer/Chile-NIST/general_drawings/184/43/E00 (TOdocumentation, TOdrawings, TOmunicipalPermit, TOstructural).PDF\n/data/tools/geoexplorer/Chile-NIST/general_drawings/184/43/E03 (TOdocumentation, TOdrawings, TOmunicipalPermit, TOstructural).PDF\n/data/tools/geoexplorer/Chile-NIST/general_drawings/184/43/E04 (TOdocumentation, TOdrawings, TOmunicipalPermit, TOstructural).PDF\n/data/tools/geoexplorer/Chile-NIST/general_drawings/184/43/E05 (TOdocumentation, TOdrawings, TOmunicipalPermit, TOstructural).PDF\n/data/tools/geoexplorer/Chile-NIST/general_drawings/184/43/E06 (TOdocumentation, TOdrawings, TOmunicipalPermit, TOstructural).PDF\n/data/tools/geoexplorer/Chile-NIST/general_drawings/184/43/E07 (TOdocumentation, TOdrawings, TOmunicipalPermit, TOstructural).PDF\n/data/tools/geoexplorer/Chile-NIST/general_drawings/184/43/E08 (TOdocumentation, TOdrawings, TOmunicipalPermit, TOstructural).PDF\n/data/tools/geoexplorer/Chile-NIST/general_drawings/184/43/E09 (TOdocumentation, TOdrawings, TOmunicipalPermit, TOstructural).PDF\n/data/tools/geoexplorer/Chile-NIST/general_drawings/184/43/E10 (TOdocumentation, TOdrawings, TOmunicipalPermit, TOstructural).PDF\n/data/tools/geoexplorer/Chile-NIST/general_drawings/184/43/E11 (TOdocumentation, TOdrawings, TOmunicipalPermit, TOstructural).PDF\n/data/tools/geoexplorer/Chile-NIST/general_drawings/184/43/E12 (TOdocumentation, TOdrawings, TOmunicipalPermit, TOstructural).PDF\n/data/tools/geoexplorer/Chile-NIST/general_drawings/184/43/E12A (TOdocumentation, TOdrawings, TOmunicipalPermit, TOstructural).PDF\n/data/tools/geoexplorer/Chile-NIST/general_drawings/184/43/ELEVACIONES-CORTES-MODIFICADAS-2 (TOdocumentation, TOdrawings, TOdeveloper, TOarchitectural).dwg\n/data/tools/geoexplorer/Chile-NIST/general_drawings/184/43/Elevaciones3 (TOdocumentation, TOdrawings, TOdeveloper, TOstructural).dwg\n/data/tools/geoexplorer/Chile-NIST/general_drawings/184/43/Estanque EC 16-06-2007 (TOdocumentation, TOdrawings, TOdeveloper, TOstructural).dwg\n/data/tools/geoexplorer/Chile-NIST/general_drawings/184/43/PLANTAS (TOdocumentation, TOdrawings, TOdeveloper, TOarchitectural).dwg\n/data/tools/geoexplorer/Chile-NIST/general_drawings/184/43/S00 (TOdocumentation, TOdrawings, TOmunicipalPermit, TOentibación).PDF\n/data/tools/geoexplorer/Chile-NIST/general_drawings/184/43/plantas1 (TOdocumentation, TOdrawings, TOdeveloper, TOstructural).dwg\n/data/tools/geoexplorer/Chile-NIST/general_drawings/184/43/README.TXT",/data/tools/geoexplorer/Chile-NIST/photos/Maule.Chile.2010/184/5/santiago_pujol_IMG_0203.JPG,/data/tools/geoexplorer/Chile-NIST/photos/Maule.Chile.2010/184/5/santiago_pujol_IMG_0203.JPG,COLEGIO INMACULADA,0.402,,0.68,
185,Torre Libertad,-36.828528,-73.052949,Lincoyan,440,Concepcion,25,0.416509067044445,,"/data/tools/geoexplorer/Chile-NIST/general_drawings/185/43/A01 (TLdocumentation, TLdrawings, TLmunicipalPermit, TLarchitectural).PDF\n/data/tools/geoexplorer/Chile-NIST/general_drawings/185/43/A02 (TLdocumentation, TLdrawings, TLmunicipalPermit, TLarchitectural).PDF\n/data/tools/geoexplorer/Chile-NIST/general_drawings/185/43/A03 (TLdocumentation, TLdrawings, TLmunicipalPermit, TLarchitectural).PDF\n/data/tools/geoexplorer/Chile-NIST/general_drawings/185/43/A04 (TLdocumentation, TLdrawings, TLmunicipalPermit, TLarchitectural).PDF\n/data/tools/geoexplorer/Chile-NIST/general_drawings/185/43/A05 (TLdocumentation, TLdrawings, TLmunicipalPermit, TLarchitectural).PDF\n/data/tools/geoexplorer/Chile-NIST/general_drawings/185/43/A06 (TLdocumentation, TLdrawings, TLmunicipalPermit, TLarchitectural).PDF\n/data/tools/geoexplorer/Chile-NIST/general_drawings/185/43/A07 (TLdocumentation, TLdrawings, TLmunicipalPermit, TLarchitectural).PDF\n/data/tools/geoexplorer/Chile-NIST/general_drawings/185/43/A08 (TLdocumentation, TLdrawings, TLmunicipalPermit, TLarchitectural).PDF\n/data/tools/geoexplorer/Chile-NIST/general_drawings/185/43/A09 (TLdocumentation, TLdrawings, TLmunicipalPermit, TLarchitectural).PDF\n/data/tools/geoexplorer/Chile-NIST/general_drawings/185/43/A10 (TLdocumentation, TLdrawings, TLmunicipalPermit, TLarchitectural).PDF\n/data/tools/geoexplorer/Chile-NIST/general_drawings/185/43/A11 (TLdocumentation, TLdrawings, TLmunicipalPermit, TLarchitectural).PDF\n/data/tools/geoexplorer/Chile-NIST/general_drawings/185/43/A12 (TLdocumentation, TLdrawings, TLmunicipalPermit, TLarchitectural).PDF\n/data/tools/geoexplorer/Chile-NIST/general_drawings/185/43/A13 (TLdocumentation, TLdrawings, TLmunicipalPermit, TLarchitectural).PDF\n/data/tools/geoexplorer/Chile-NIST/general_drawings/185/43/A14 (TLdocumentation, TLdrawings, TLmunicipalPermit, TLarchitectural).PDF\n/data/tools/geoexplorer/Chile-NIST/general_drawings/185/43/A15 (TLdocumentation, TLdrawings, TLmunicipalPermit, TLarchitectural).PDF\n/data/tools/geoexplorer/Chile-NIST/general_drawings/185/43/A16 (TLdocumentation, TLdrawings, TLmunicipalPermit, TLarchitectural).PDF\n/data/tools/geoexplorer/Chile-NIST/general_drawings/185/43/A17 (TLdocumentation, TLdrawings, TLmunicipalPermit, TLarchitectural).PDF\n/data/tools/geoexplorer/Chile-NIST/general_drawings/185/43/A18 (TLdocumentation, TLdrawings, TLmunicipalPermit, TLarchitectural).PDF\n/data/tools/geoexplorer/Chile-NIST/general_drawings/185/43/E01 (TLdocumentation, TLdrawings, TLmunicipalPermit, TLstructural).PDF\n/data/tools/geoexplorer/Chile-NIST/general_drawings/185/43/E02 (TLdocumentation, TLdrawings, TLmunicipalPermit, TLstructural).PDF\n/data/tools/geoexplorer/Chile-NIST/general_drawings/185/43/E03 (TLdocumentation, TLdrawings, TLmunicipalPermit, TLstructural).PDF\n/data/tools/geoexplorer/Chile-NIST/general_drawings/185/43/E04 (TLdocumentation, TLdrawings, TLmunicipalPermit, TLstructural).PDF\n/data/tools/geoexplorer/Chile-NIST/general_drawings/185/43/E05 (TLdocumentation, TLdrawings, TLmunicipalPermit, TLstructural).PDF\n/data/tools/geoexplorer/Chile-NIST/general_drawings/185/43/E06 (TLdocumentation, TLdrawings, TLmunicipalPermit, TLstructural).PDF\n/data/tools/geoexplorer/Chile-NIST/general_drawings/185/43/E07 (TLdocumentation, TLdrawings, TLmunicipalPermit, TLstructural).PDF\n/data/tools/geoexplorer/Chile-NIST/general_drawings/185/43/E08 (TLdocumentation, TLdrawings, TLmunicipalPermit, TLstructural).PDF\n/data/tools/geoexplorer/Chile-NIST/general_drawings/185/43/E09 (TLdocumentation, TLdrawings, TLmunicipalPermit, TLstructural).PDF\n/data/tools/geoexplorer/Chile-NIST/general_drawings/185/43/E10 (TLdocumentation, TLdrawings, TLmunicipalPermit, TLstructural).PDF\n/data/tools/geoexplorer/Chile-NIST/general_drawings/185/43/E11 (TLdocumentation, TLdrawings, TLmunicipalPermit, TLstructural).PDF\n/data/tools/geoexplorer/Chile-NIST/general_drawings/185/43/E12 (TLdocumentation, TLdrawings, TLmunicipalPermit, TLstructural).PDF\n/data/tools/geoexplorer/Chile-NIST/general_drawings/185/43/E13 (TLdocumentation, TLdrawings, TLmunicipalPermit, TLstructural).PDF\n/data/tools/geoexplorer/Chile-NIST/general_drawings/185/43/E14 (TLdocumentation, TLdrawings, TLmunicipalPermit, TLstructural).PDF\n/data/tools/geoexplorer/Chile-NIST/general_drawings/185/43/E15 (TLdocumentation, TLdrawings, TLmunicipalPermit, TLstructural).PDF\n/data/tools/geoexplorer/Chile-NIST/general_drawings/185/43/E16 (TLdocumentation, TLdrawings, TLmunicipalPermit, TLstructural).PDF\n/data/tools/geoexplorer/Chile-NIST/general_drawings/185/43/E17 (TLdocumentation, TLdrawings, TLmunicipalPermit, TLstructural).PDF\n/data/tools/geoexplorer/Chile-NIST/general_drawings/185/43/E18 (TLdocumentation, TLdrawings, TLmunicipalPermit, TLstructural).PDF\n/data/tools/geoexplorer/Chile-NIST/general_drawings/185/43/E19 (TLdocumentation, TLdrawings, TLmunicipalPermit, TLstructural).PDF\n/data/tools/geoexplorer/Chile-NIST/general_drawings/185/43/E20 (TLdocumentation, TLdrawings, TLmunicipalPermit, TLstructural).PDF\n/data/tools/geoexplorer/Chile-NIST/general_drawings/185/43/E21 (TLdocumentation, TLdrawings, TLmunicipalPermit, TLstructural).PDF\n/data/tools/geoexplorer/Chile-NIST/general_drawings/185/43/E22 (TLdocumentation, TLdrawings, TLmunicipalPermit, TLstructural).PDF\n/data/tools/geoexplorer/Chile-NIST/general_drawings/185/43/E23 (TLdocumentation, TLdrawings, TLmunicipalPermit, TLstructural).PDF\n/data/tools/geoexplorer/Chile-NIST/general_drawings/185/43/E24 (TLdocumentation, TLdrawings, TLmunicipalPermit, TLstructural).PDF\n/data/tools/geoexplorer/Chile-NIST/general_drawings/185/43/E25 (TLdocumentation, TLdrawings, TLmunicipalPermit, TLstructural).PDF\n/data/tools/geoexplorer/Chile-NIST/general_drawings/185/43/E26 (TLdocumentation, TLdrawings, TLmunicipalPermit, TLstructural).PDF",/data/tools/geoexplorer/Chile-NIST/photos/Maule.Chile.2010/185/5/santiago_pujol_IMG_0383.JPG,/data/tools/geoexplorer/Chile-NIST/photos/Maule.Chile.2010/185/21/carlos_sempere_Sempere_5967.jpg,COLEGIO INMACULADA,0.402,,0.68,
186,Sodimac Distribution Center,-36.982306,-73.172159,Av Golfo de Arauco,,Coronel,9,16.349826071998,,,/data/tools/geoexplorer/Chile-NIST/photos/Maule.Chile.2010/186/1/jay_harris_Sodimac Distribution Center - 0050 - JLH.JPG,/data/tools/geoexplorer/Chile-NIST/photos/Maule.Chile.2010/186/1/jay_harris_Sodimac Distribution Center - 0027 - JLH.JPG,COLEGIO SAN PEDRO,0.65,,0.447,
187,Condominio Los Reyes de Huechuraba,-33.346823,-70.670983,Av Pedro Fontova,7788,Santiago,33,10.7399863141396,,,/data/tools/geoexplorer/Chile-NIST/photos/Maule.Chile.2010/187/1/jay_harris_Condominio Los Reyes de Huechuraba - 0004 - JLH.JPG,/data/tools/geoexplorer/Chile-NIST/photos/Maule.Chile.2010/187/1/jay_harris_Condominio Los Reyes de Huechuraba - 0002 - JLH.JPG,CERRO SANTA LUCIA,0.338,,0.451,
188,Edificio Hipodromo Independencia,-33.407073,-70.665249,Av Hipodromo Chile,1770,Santiago,33,4.26097998407326,,,/data/tools/geoexplorer/Chile-NIST/photos/Maule.Chile.2010/188/1/jay_harris_edificio_hipodromo_JLH (4).JPG,,CERRO SANTA LUCIA,0.338,,0.451,
189,Vista Hipodromo,-33.406505,-70.663203,Av Hipodromo Chile,1631,Santiago,33,4.22780567321046,,,/data/tools/geoexplorer/Chile-NIST/photos/Maule.Chile.2010/189/1/jay_harris_edificio_vista_hipodromo_JLH (1).JPG,/data/tools/geoexplorer/Chile-NIST/photos/Maule.Chile.2010/189/22/guillermo_franco_IMG_3006.JPG,CERRO SANTA LUCIA,0.338,,0.451,
190,Vista Santa Maria,-33.429434,-70.657557,Av General Prieto,1717,Santiago,33,1.84098260861782,,,/data/tools/geoexplorer/Chile-NIST/photos/Maule.Chile.2010/190/1/jay_harris_edificios_vista_santa_maria_JLH (17).JPG,/data/tools/geoexplorer/Chile-NIST/photos/Maule.Chile.2010/190/1/jay_harris_edificios_vista_santa_maria_JLH (15).JPG,CERRO SANTA LUCIA,0.338,,0.451,
191,Patio Mayor 1,-33.388106,-70.617179,Av. del Valle,937,Santiago,33,6.29258869004475,,,/data/tools/geoexplorer/Chile-NIST/photos/Maule.Chile.2010/191/8/gilberto_leiva_DSC02580.JPG,/data/tools/geoexplorer/Chile-NIST/photos/Maule.Chile.2010/191/1/jay_harris_Edificio Patio Mayor 937 - 0038 - JLH.JPG,CERRO SANTA LUCIA,0.338,,0.451,
192,Patio Mayor 2,-33.388315,-70.617954,Av. del Valle,945,Santiago,33,6.24415519998756,,,/data/tools/geoexplorer/Chile-NIST/photos/Maule.Chile.2010/192/1/jay_harris_Edificio Patio Mayor 945 - 0038 - JLH.JPG,/data/tools/geoexplorer/Chile-NIST/photos/Maule.Chile.2010/192/1/jay_harris_Edificio Patio Mayor 945 - 0022 - JLH.JPG,CERRO SANTA LUCIA,0.338,,0.451,
193,Patio Mayor 3,-33.388315,-70.618366,Av. del Valle,961,Santiago,33,6.23013376023357,,,/data/tools/geoexplorer/Chile-NIST/photos/Maule.Chile.2010/193/8/gilberto_leiva_DSC02567.JPG,/data/tools/geoexplorer/Chile-NIST/photos/Maule.Chile.2010/193/1/jay_harris_Edificio Patio Mayor 961 - 0026 - JLH.JPG,CERRO SANTA LUCIA,0.338,,0.451,
194,Patio Mayor 4,-33.388588,-70.618881,Av. Santa Clara,301,Santiago,33,6.18454966574488,,,/data/tools/geoexplorer/Chile-NIST/photos/Maule.Chile.2010/194/1/jay_harris_Edificio Patio Mayor 301 - 0060 - JLH.JPG,,CERRO SANTA LUCIA,0.338,,0.451,
195,Don Tristan,-33.505187,-70.755386,Bailen,2320,Santiago,1,1.58016330176078,,,/data/tools/geoexplorer/Chile-NIST/photos/Maule.Chile.2010/195/3/gabriel_alarcon_DSC02270.JPG,/data/tools/geoexplorer/Chile-NIST/photos/Maule.Chile.2010/195/5/santiago_pujol_IMG_0987.JPG,MAIPU RM,0.561,,0.44,
196,Alcazar,-33.026477,-71.553655,Alvarez,,Viña del Mar,8,0.29660371905242,,/data/tools/geoexplorer/Chile-NIST/general_drawings/196/6/LAM_01-NOTAS GENERALES (general notes; in Spanish).dwg\n/data/tools/geoexplorer/Chile-NIST/general_drawings/196/6/LAM_02-ESTRUCTURA FUNDACION (foundation plan; in Spanish).dwg\n/data/tools/geoexplorer/Chile-NIST/general_drawings/196/6/LAM_02a(CANALETAS SALA DE BOMBAS y ESTANQUES) (tank and channel details of the pump room; in Spanish).dwg\n/data/tools/geoexplorer/Chile-NIST/general_drawings/196/6/LAM_03-LOSA FUNDACION (ARMADURA INF) (mat foundation bottom reinforcement; in Spanish).DWG\n/data/tools/geoexplorer/Chile-NIST/general_drawings/196/6/LAM_04-LOSA FUNDACION (ARMADDURA SUP) (mat foundation top reinforcement; in Spanish).DWG\n/data/tools/geoexplorer/Chile-NIST/general_drawings/196/6/LAM_05-PLANTA REFUERZOS DE FUNDACION (reinforcement plan of foundation; in Spanish).dwg\n/data/tools/geoexplorer/Chile-NIST/general_drawings/196/6/LAM_06-PLANTA EST-SUBTE-3 (reinforcement plan of basement 3; in Spanish).dwg\n/data/tools/geoexplorer/Chile-NIST/general_drawings/196/6/LAM_07-PLANTA EST-SUBTE-2 (reinforcement plan of basement 2; in Spanish).dwg\n/data/tools/geoexplorer/Chile-NIST/general_drawings/196/6/LAM_08-PLANTA EST-SUBTE-1 (reinforcement plan of basement 1; in Spanish).dwg\n/data/tools/geoexplorer/Chile-NIST/general_drawings/196/6/LAM_09-PLANTA EST-PISO 1 (reinforcement plan of floor 1; in Spanish).dwg\n/data/tools/geoexplorer/Chile-NIST/general_drawings/196/6/LAM_10-PLANTA EST-PISO 2 (reinforcement plan of floor 2; in Spanish).dwg\n/data/tools/geoexplorer/Chile-NIST/general_drawings/196/6/LAM_11-PLANTA EST-PISOS 3a5 (reinforcement plan of floors 3 to 5; in Spanish).dwg\n/data/tools/geoexplorer/Chile-NIST/general_drawings/196/6/LAM_12-PLANTA EST-PISOS 6a9 (reinforcement plan of floors 6 to 9; in Spanish).dwg\n/data/tools/geoexplorer/Chile-NIST/general_drawings/196/6/LAM_13-PLANTA EST-PISOS 10a15 (reinforcement plan of floors 10 to 15; in Spanish).dwg\n/data/tools/geoexplorer/Chile-NIST/general_drawings/196/6/LAM_14-PLANTA EST-PISO 16 (reinforcement plan of floor 16; in Spanish).dwg\n/data/tools/geoexplorer/Chile-NIST/general_drawings/196/6/LAM_15-EJES A-B-B'-C-C' (elev axes A-B-B'-C-C'; in Spanish).dwg\n/data/tools/geoexplorer/Chile-NIST/general_drawings/196/6/LAM_16-EJE D (elev axis D; in Spanish).dwg\n/data/tools/geoexplorer/Chile-NIST/general_drawings/196/6/LAM_17-EJE F (elev axis F; in Spanish).dwg\n/data/tools/geoexplorer/Chile-NIST/general_drawings/196/6/LAM_18-EJE G (elev axis G; in Spanish).dwg\n/data/tools/geoexplorer/Chile-NIST/general_drawings/196/6/LAM_19-EJE I (elev axis I; in Spanish).dwg\n/data/tools/geoexplorer/Chile-NIST/general_drawings/196/6/LAM_20-EJES J-K (elev axes J-K; in Spanish).dwg\n/data/tools/geoexplorer/Chile-NIST/general_drawings/196/6/LAM_21-EJE 2 (elev axis 2; in Spanish).dwg\n/data/tools/geoexplorer/Chile-NIST/general_drawings/196/6/LAM_22-EJE 3 (elev axis 3; in Spanish).dwg\n/data/tools/geoexplorer/Chile-NIST/general_drawings/196/6/LAM_23- EJE 4 (elev axis 4; in Spanish).dwg\n/data/tools/geoexplorer/Chile-NIST/general_drawings/196/6/LAM_24- EJE 5 (elev axis 5; in Spanish).dwg\n/data/tools/geoexplorer/Chile-NIST/general_drawings/196/6/LAM_25a- EJE 6 (elev axis 6; in Spanish).dwg\n/data/tools/geoexplorer/Chile-NIST/general_drawings/196/6/LAM_26- EJES 1-6'-7-8-9 (elev axes 1-6'-7-8-9; in Spanish).DWG\n/data/tools/geoexplorer/Chile-NIST/general_drawings/196/6/LAM_27 RAMPAS (ramp details and sections; in Spanish).dwg\n/data/tools/geoexplorer/Chile-NIST/general_drawings/196/6/LAM_28-ESTANQUES (tank plans; in Spanish).dwg\n/data/tools/geoexplorer/Chile-NIST/general_drawings/196/6/LAM_29-ESCALA SB-3aP2 (plans and sections of stairs basement 3 to floor 2; in Spanish).dwg\n/data/tools/geoexplorer/Chile-NIST/general_drawings/196/6/LAM_30-ESCALA P3aP16 (plans and sections of stairs floors 3 to 16; in Spanish).dwg\n/data/tools/geoexplorer/Chile-NIST/general_drawings/196/6/LAM_31-DESTACADO VIGAS PISO 1º y 2º (beam reinforcement details floors 1 and 2; in Spanish).dwg\n/data/tools/geoexplorer/Chile-NIST/general_drawings/196/6/LAM_32-ELEVACION EJE K Y CORTES (elev axis K and sections; in Spanish).dwg,/data/tools/geoexplorer/Chile-NIST/photos/Maule.Chile.2010/196/4/andres_lepage_DSCN0326.jpg,,CENTRO,0.334,,0.33,
197,Torre del Almendral,-33.049866,-71.605968,Almirante Barroso,,Viña del Mar,35,0.945909311770939,2.84615691226881,/data/tools/geoexplorer/Chile-NIST/general_drawings/197/10/floor_plan_532.pdf,/data/tools/geoexplorer/Chile-NIST/photos/Maule.Chile.2010/197/4/andres_lepage_DSCN0318.jpg,,EL ALMENDRAL,0.265,0.363,0.29,
198,Bahia,-33.015695,-71.557445,Av Peru,530,Viña del Mar,8,1.23471209377163,,,/data/tools/geoexplorer/Chile-NIST/photos/Maule.Chile.2010/198/4/andres_lepage_DSCN0558.jpg,/data/tools/geoexplorer/Chile-NIST/photos/Maule.Chile.2010/198/5/santiago_pujol_IMG_0843.JPG,CENTRO,0.334,,0.33,
199,Lorena,-33.015873,-71.557675,Av Peru,576,Viña del Mar,8,1.2286810725197,,,/data/tools/geoexplorer/Chile-NIST/photos/Maule.Chile.2010/199/4/andres_lepage_DSCN0557.jpg,,CENTRO,0.334,,0.33,
200,New Miramar,-33.025633,-71.560658,Viana,,Viña del Mar,8,0.919796947324329,,"/data/tools/geoexplorer/Chile-NIST/general_drawings/200/6/LAM_01 (PE_FUNDACION) (foundation plan; in Spanish).dwg\n/data/tools/geoexplorer/Chile-NIST/general_drawings/200/6/LAM_02 (PL_FUND.ARM.INF.) (mat foundation bottom reinforcement; in Spanish).dwg\n/data/tools/geoexplorer/Chile-NIST/general_drawings/200/6/LAM_03 (PL_FUND.ARM.SUP.) (mat foundation top reinforcement; in Spanish).dwg\n/data/tools/geoexplorer/Chile-NIST/general_drawings/200/6/LAM_04 (PL_FUND.REFUERZOS) (mat foundation reinforcement; in Spanish).dwg\n/data/tools/geoexplorer/Chile-NIST/general_drawings/200/6/LAM_05_(PE_SUBTE) (basement plan; in Spanish).DWG\n/data/tools/geoexplorer/Chile-NIST/general_drawings/200/6/LAM_06_ (LOSA SUBTE ARM. INF.) (basement slab bottom reinforcement; in Spanish).DWG\n/data/tools/geoexplorer/Chile-NIST/general_drawings/200/6/LAM_07_ (LOSA SUBTE ARM. SUP.) (basement slab top reinforcement; in Spanish).DWG\n/data/tools/geoexplorer/Chile-NIST/general_drawings/200/6/LAM_08_(PE_PISO 1) (1st floor plan; in Spanish).DWG\n/data/tools/geoexplorer/Chile-NIST/general_drawings/200/6/LAM_09 (LOSA_INF_PISO 1) (1st floor slab bottom reinforcement; in Spanish).DWG\n/data/tools/geoexplorer/Chile-NIST/general_drawings/200/6/LAM_10 (LOSA_SUP_PISO 1) (1st floor slab top reinforcement; in Spanish).DWG\n/data/tools/geoexplorer/Chile-NIST/general_drawings/200/6/LAM_11_(PE_PISO 2) (2nd floor plan; in Spanish).DWG\n/data/tools/geoexplorer/Chile-NIST/general_drawings/200/6/LAM_12 (LOSA_INF_PISO 2) (2nd floor slab bottom reinforcement; in Spanish).DWG\n/data/tools/geoexplorer/Chile-NIST/general_drawings/200/6/LAM_13 (LOSA_SUP_PISO 2) (2nd floor top reinforcement; in Spanish).DWG\n/data/tools/geoexplorer/Chile-NIST/general_drawings/200/6/LAM_14_(PE_PISO 3 A 22) (3rd to 22nd floor plan; in Spanish).DWG\n/data/tools/geoexplorer/Chile-NIST/general_drawings/200/6/LAM_15 (LOSA_INF_PISOS 3 A22) (3rd to 22nd floor slab bottom reinforcement; in Spanish).DWG\n/data/tools/geoexplorer/Chile-NIST/general_drawings/200/6/LAM_16 (LOSA_SUP_PISOS 3 A22) (2rd to 22nd floor slab top reinforcement; in Spanish).DWG\n/data/tools/geoexplorer/Chile-NIST/general_drawings/200/6/LAM_17_(PE_PISO 23) (23rd floor plan; in Spanish).DWG\n/data/tools/geoexplorer/Chile-NIST/general_drawings/200/6/LAM_18 (LOSA_INF_PISO 23) (23rd floor slab bottom reinforcement; in Spanish).DWG\n/data/tools/geoexplorer/Chile-NIST/general_drawings/200/6/LAM_19 (LOSA_SUP_PISO 23) (23rd floor slab top reinforcement; in Spanish).DWG\n/data/tools/geoexplorer/Chile-NIST/general_drawings/200/6/LAM_20_(PE_PISO 24) (24th floor plan; in Spanish).DWG\n/data/tools/geoexplorer/Chile-NIST/general_drawings/200/6/LAM_21 (LOSA_INF_PISO 24) (24th floor slab bottom reinforcement; in Spanish).DWG\n/data/tools/geoexplorer/Chile-NIST/general_drawings/200/6/LAM_22 (LOSA_SUP_PISO 24) (24th floor slab top reinforcement; in Spanish).DWG\n/data/tools/geoexplorer/Chile-NIST/general_drawings/200/6/LAM_23_(PE_PL_PISO 24 PISCINA) (24th floor pool details; in Spanish).DWG\n/data/tools/geoexplorer/Chile-NIST/general_drawings/200/6/LAM_24_(PE_PISO 25) (25th floor plan; in Spanish).DWG\n/data/tools/geoexplorer/Chile-NIST/general_drawings/200/6/LAM_25 (LOSA_INF.-SUP._PISO 25) (25th floor slab reinforcement; in Spanish).DWG\n/data/tools/geoexplorer/Chile-NIST/general_drawings/200/6/LAM_26_(PE_PL_SALA MAQ.) (HVAC floor plans and sections; in Spanish).DWG\n/data/tools/geoexplorer/Chile-NIST/general_drawings/200/6/LAM_27 (EJE 1) (elev axis 1; in Spanish).DWG\n/data/tools/geoexplorer/Chile-NIST/general_drawings/200/6/LAM_28 (EJES 2,3) (elev axes 2, 3; in Spanish).DWG\n/data/tools/geoexplorer/Chile-NIST/general_drawings/200/6/LAM_29 (EJES 2A) (elev axis 2A; in Spanish).DWG\n/data/tools/geoexplorer/Chile-NIST/general_drawings/200/6/LAM_30 (EJE 4, 5) (elev axes 4, 5; in Spanish).DWG\n/data/tools/geoexplorer/Chile-NIST/general_drawings/200/6/LAM_31 (EJE 6) (elev axis 6; in Spanish).DWG\n/data/tools/geoexplorer/Chile-NIST/general_drawings/200/6/LAM_32 (EJE 7) (elev axis 7; in Spanish).DWG\n/data/tools/geoexplorer/Chile-NIST/general_drawings/200/6/LAM_33 (EJES 8,9,11) (elev axes 8,9,11; in Spanish).DWG\n/data/tools/geoexplorer/Chile-NIST/general_drawings/200/6/LAM_34 (EJES 14,15,16) (elev axes 14,15,16; in Spanish).DWG\n/data/tools/geoexplorer/Chile-NIST/general_drawings/200/6/LAM_35 (EJE 17) (elev axis 17; in Spanish).DWG\n/data/tools/geoexplorer/Chile-NIST/general_drawings/200/6/LAM_36 (EJE 22) (elev axis 22; in Spanish).DWG\n/data/tools/geoexplorer/Chile-NIST/general_drawings/200/6/LAM_37 (EJE 23) (elev axis 23; in Spanish).DWG\n/data/tools/geoexplorer/Chile-NIST/general_drawings/200/6/LAM_38 (EJE 24) (elev axis 24; in Spanish).DWG\n/data/tools/geoexplorer/Chile-NIST/general_drawings/200/6/LAM_39 (EJES 25-26) (elev axes 25-26; in Spanish).DWG\n/data/tools/geoexplorer/Chile-NIST/general_drawings/200/6/LAM_40 (EJE 27) (elev axis 27; in Spanish).DWG\n/data/tools/geoexplorer/Chile-NIST/general_drawings/200/6/LAM_41 (EJES A=W,B-C) (elev axes A=W,B-C; in Spanish).DWG\n/data/tools/geoexplorer/Chile-NIST/general_drawings/200/6/LAM_42 (EJE D) (elev axis D; in Spanish).DWG\n/data/tools/geoexplorer/Chile-NIST/general_drawings/200/6/LAM_43 (EJE E) (elev axis E; in Spanish).DWG\n/data/tools/geoexplorer/Chile-NIST/general_drawings/200/6/LAM_44 (EJE F, Q) (elev axes F, Q; in Spanish).DWG\n/data/tools/geoexplorer/Chile-NIST/general_drawings/200/6/LAM_45 (EJES G=P, H) (elev axes G=P, H; in Spanish).DWG\n/data/tools/geoexplorer/Chile-NIST/general_drawings/200/6/LAM_46 (EJE I) (elev axis I; in Spanish).DWG\n/data/tools/geoexplorer/Chile-NIST/general_drawings/200/6/LAM_47 (EJE J) (elev axis J; in Spanish).DWG\n/data/tools/geoexplorer/Chile-NIST/general_drawings/200/6/LAM_48 (EJES K,L) (elev axes K,L; in Spanish).DWG\n/data/tools/geoexplorer/Chile-NIST/general_drawings/200/6/LAM_49 (EJE M) (elev axis M; in Spanish).DWG\n/data/tools/geoexplorer/Chile-NIST/general_drawings/200/6/LAM_50 (EJE N) (elev axis N; in Spanish).DWG\n/data/tools/geoexplorer/Chile-NIST/general_drawings/200/6/LAM_51 (EJE O) (elev axis O; in Spanish).DWG\n/data/tools/geoexplorer/Chile-NIST/general_drawings/200/6/LAM_52 (EJE R) (elev axis R; in Spanish).dwg\n/data/tools/geoexplorer/Chile-NIST/general_drawings/200/6/LAM_52 (EJE R)-modificado (elev axis R modified; in Spanish).dwg\n/data/tools/geoexplorer/Chile-NIST/general_drawings/200/6/LAM_53 (EJE S) (elev axis S; in Spanish).DWG\n/data/tools/geoexplorer/Chile-NIST/general_drawings/200/6/LAM_54 (EJE T, U) (elev axes T, U; in Spanish).DWG\n/data/tools/geoexplorer/Chile-NIST/general_drawings/200/6/LAM_55 (EJE V) (elev axis V; in Spanish).DWG\n/data/tools/geoexplorer/Chile-NIST/general_drawings/200/6/LAM_56 (EJES AE,BE,BE',DE,CE,EE,FE,,DE',DE'',EE´) (elev, ejes=axes; in Spanish).dwg\n/data/tools/geoexplorer/Chile-NIST/general_drawings/200/6/LAM_57 (EJES GE-IE-HE-JE-2E-3E-FE'-5E-7E-9E-4E-11E) (elev, ejes=axes; in Spanish).dwg\n/data/tools/geoexplorer/Chile-NIST/general_drawings/200/6/LAM_58 (EJES 6E,8E,10E,12E,11E',12E',13E,14E,15E,16E,17E,17E') (elev, ejes=axes; in Spanish).dwg\n/data/tools/geoexplorer/Chile-NIST/general_drawings/200/6/LAM_59 (EJES 24E,23,E,23E',19E,20E,18E,21E,22E',22E,D2,E2) (elev, ejes=axes; in Spanish).dwg\n/data/tools/geoexplorer/Chile-NIST/general_drawings/200/6/LAM_60 (DEST. DE VIGA) (beam reinforcement details; in Spanish).DWG\n/data/tools/geoexplorer/Chile-NIST/general_drawings/200/6/LAM_61_(DETALLE ESCANTILLONES) (jacuzzi plan and sections; in Spanish).dwg\n/data/tools/geoexplorer/Chile-NIST/general_drawings/200/6/LAM_62 (DETALLE ESTANQUE) (tank details; in Spanish).dwg",/data/tools/geoexplorer/Chile-NIST/photos/Maule.Chile.2010/200/4/andres_lepage_DSCN0323.jpg,,CENTRO,0.334,,0.33,
201,Teatro,-33.024759,-71.550533,Plaza Vergara,,Viña del Mar,8,0.065103178468561,,,/data/tools/geoexplorer/Chile-NIST/photos/Maule.Chile.2010/201/4/andres_lepage_DSCN0287.jpg,/data/tools/geoexplorer/Chile-NIST/photos/Maule.Chile.2010/201/5/santiago_pujol_IMG_0379.JPG,CENTRO,0.334,,0.33,
202,Toledo,-33.019933,-71.553832,3 Norte,,Viña del Mar,8,0.660346734269942,,/data/tools/geoexplorer/Chile-NIST/general_drawings/202/6/Planta de Estructura Cielo Piso 1 (informe).dwg\n/data/tools/geoexplorer/Chile-NIST/general_drawings/202/6/Planta de Estructura Cielo Piso 10.dwg\n/data/tools/geoexplorer/Chile-NIST/general_drawings/202/6/Planta de Estructura Cielo Piso 2 a 8.dwg\n/data/tools/geoexplorer/Chile-NIST/general_drawings/202/6/Planta de Estructura Cielo Piso 9.dwg\n/data/tools/geoexplorer/Chile-NIST/general_drawings/202/6/Planta de Estructura Cielo Piso Subterraneo (informe).dwg\n/data/tools/geoexplorer/Chile-NIST/general_drawings/202/6/Scan # 1.TIF\n/data/tools/geoexplorer/Chile-NIST/general_drawings/202/6/Scan # 10.TIF\n/data/tools/geoexplorer/Chile-NIST/general_drawings/202/6/Scan # 11.TIF\n/data/tools/geoexplorer/Chile-NIST/general_drawings/202/6/Scan # 12.TIF\n/data/tools/geoexplorer/Chile-NIST/general_drawings/202/6/Scan # 13.TIF\n/data/tools/geoexplorer/Chile-NIST/general_drawings/202/6/Scan # 14.TIF\n/data/tools/geoexplorer/Chile-NIST/general_drawings/202/6/Scan # 15.TIF\n/data/tools/geoexplorer/Chile-NIST/general_drawings/202/6/Scan # 16.TIF\n/data/tools/geoexplorer/Chile-NIST/general_drawings/202/6/Scan # 17.TIF\n/data/tools/geoexplorer/Chile-NIST/general_drawings/202/6/Scan # 18.TIF\n/data/tools/geoexplorer/Chile-NIST/general_drawings/202/6/Scan # 19.TIF\n/data/tools/geoexplorer/Chile-NIST/general_drawings/202/6/Scan # 2.TIF\n/data/tools/geoexplorer/Chile-NIST/general_drawings/202/6/Scan # 20.TIF\n/data/tools/geoexplorer/Chile-NIST/general_drawings/202/6/Scan # 3.TIF\n/data/tools/geoexplorer/Chile-NIST/general_drawings/202/6/Scan # 4.TIF\n/data/tools/geoexplorer/Chile-NIST/general_drawings/202/6/Scan # 5.TIF\n/data/tools/geoexplorer/Chile-NIST/general_drawings/202/6/Scan # 6.TIF\n/data/tools/geoexplorer/Chile-NIST/general_drawings/202/6/Scan # 7.TIF\n/data/tools/geoexplorer/Chile-NIST/general_drawings/202/6/Scan # 8.TIF\n/data/tools/geoexplorer/Chile-NIST/general_drawings/202/6/Scan # 9.TIF\n/data/tools/geoexplorer/Chile-NIST/general_drawings/202/6/README.TXT,/data/tools/geoexplorer/Chile-NIST/photos/Maule.Chile.2010/202/3/gabriel_alarcon_DSC02127.JPG,/data/tools/geoexplorer/Chile-NIST/photos/Maule.Chile.2010/202/5/santiago_pujol_IMG_0686.JPG,CENTRO,0.334,,0.33,
203,Alto Arauco,-36.818596,-73.041249,Av Los Carrera,1555,Concepcion,25,1.22911095375815,,"/data/tools/geoexplorer/Chile-NIST/general_drawings/203/43/1136-00 (AAdocumentation, AAdrawings, AAdeveloper, AAstructural).dwg\n/data/tools/geoexplorer/Chile-NIST/general_drawings/203/43/1136-01 (AAdocumentation, AAdrawings, AAdeveloper, AAstructural).dwg\n/data/tools/geoexplorer/Chile-NIST/general_drawings/203/43/1136-02 (AAdocumentation, AAdrawings, AAdeveloper, AAstructural).dwg\n/data/tools/geoexplorer/Chile-NIST/general_drawings/203/43/1136-03 (AAdocumentation, AAdrawings, AAdeveloper, AAstructural).dwg\n/data/tools/geoexplorer/Chile-NIST/general_drawings/203/43/1136-04 (AAdocumentation, AAdrawings, AAdeveloper, AAstructural).dwg\n/data/tools/geoexplorer/Chile-NIST/general_drawings/203/43/1136-05 (AAdocumentation, AAdrawings, AAdeveloper, AAstructural).dwg\n/data/tools/geoexplorer/Chile-NIST/general_drawings/203/43/1136-06 (AAdocumentation, AAdrawings, AAdeveloper, AAstructural).dwg\n/data/tools/geoexplorer/Chile-NIST/general_drawings/203/43/1136-07 (AAdocumentation, AAdrawings, AAdeveloper, AAstructural).dwg\n/data/tools/geoexplorer/Chile-NIST/general_drawings/203/43/1136-08 (AAdocumentation, AAdrawings, AAdeveloper, AAstructural).dwg\n/data/tools/geoexplorer/Chile-NIST/general_drawings/203/43/1136-09 (AAdocumentation, AAdrawings, AAdeveloper, AAstructural).dwg\n/data/tools/geoexplorer/Chile-NIST/general_drawings/203/43/1136-10 (AAdocumentation, AAdrawings, AAdeveloper, AAstructural).dwg\n/data/tools/geoexplorer/Chile-NIST/general_drawings/203/43/1136-11 (AAdocumentation, AAdrawings, AAdeveloper, AAstructural).dwg\n/data/tools/geoexplorer/Chile-NIST/general_drawings/203/43/1136-12 (AAdocumentation, AAdrawings, AAdeveloper, AAstructural).dwg\n/data/tools/geoexplorer/Chile-NIST/general_drawings/203/43/1136-13 (AAdocumentation, AAdrawings, AAdeveloper, AAstructural).dwg\n/data/tools/geoexplorer/Chile-NIST/general_drawings/203/43/1136-14 (AAdocumentation, AAdrawings, AAdeveloper, AAstructural).dwg\n/data/tools/geoexplorer/Chile-NIST/general_drawings/203/43/1136-15 (AAdocumentation, AAdrawings, AAdeveloper, AAstructural).dwg\n/data/tools/geoexplorer/Chile-NIST/general_drawings/203/43/1136-16 (AAdocumentation, AAdrawings, AAdeveloper, AAstructural).dwg\n/data/tools/geoexplorer/Chile-NIST/general_drawings/203/43/1136-17 (AAdocumentation, AAdrawings, AAdeveloper, AAstructural).dwg\n/data/tools/geoexplorer/Chile-NIST/general_drawings/203/43/1136-18 (AAdocumentation, AAdrawings, AAdeveloper, AAstructural).dwg\n/data/tools/geoexplorer/Chile-NIST/general_drawings/203/43/1136-19 (AAdocumentation, AAdrawings, AAdeveloper, AAstructural).dwg\n/data/tools/geoexplorer/Chile-NIST/general_drawings/203/43/1136-20 (AAdocumentation, AAdrawings, AAdeveloper, AAstructural).dwg\n/data/tools/geoexplorer/Chile-NIST/general_drawings/203/43/1136-21 (AAdocumentation, AAdrawings, AAdeveloper, AAstructural).dwg\n/data/tools/geoexplorer/Chile-NIST/general_drawings/203/43/1136-22 (AAdocumentation, AAdrawings, AAdeveloper, AAstructural).dwg\n/data/tools/geoexplorer/Chile-NIST/general_drawings/203/43/1136-23 (AAdocumentation, AAdrawings, AAdeveloper, AAstructural).dwg\n/data/tools/geoexplorer/Chile-NIST/general_drawings/203/43/1136-24 (AAdocumentation, AAdrawings, AAdeveloper, AAstructural).dwg\n/data/tools/geoexplorer/Chile-NIST/general_drawings/203/43/1136-25 (AAdocumentation, AAdrawings, AAdeveloper, AAstructural).dwg\n/data/tools/geoexplorer/Chile-NIST/general_drawings/203/43/1136-26 (AAdocumentation, AAdrawings, AAdeveloper, AAstructural).dwg\n/data/tools/geoexplorer/Chile-NIST/general_drawings/203/43/1136-27 (AAdocumentation, AAdrawings, AAdeveloper, AAstructural).dwg\n/data/tools/geoexplorer/Chile-NIST/general_drawings/203/43/1136-28 (AAdocumentation, AAdrawings, AAdeveloper, AAstructural).dwg\n/data/tools/geoexplorer/Chile-NIST/general_drawings/203/43/1136-29 (AAdocumentation, AAdrawings, AAdeveloper, AAstructural).dwg\n/data/tools/geoexplorer/Chile-NIST/general_drawings/203/43/1136-30 (AAdocumentation, AAdrawings, AAdeveloper, AAstructural).dwg\n/data/tools/geoexplorer/Chile-NIST/general_drawings/203/43/1136-31 (AAdocumentation, AAdrawings, AAdeveloper, AAstructural).dwg\n/data/tools/geoexplorer/Chile-NIST/general_drawings/203/43/1136-32 (AAdocumentation, AAdrawings, AAdeveloper, AAstructural).dwg\n/data/tools/geoexplorer/Chile-NIST/general_drawings/203/43/1136-33 (AAdocumentation, AAdrawings, AAdeveloper, AAstructural).dwg\n/data/tools/geoexplorer/Chile-NIST/general_drawings/203/43/1136-34 (AAdocumentation, AAdrawings, AAdeveloper, AAstructural).dwg\n/data/tools/geoexplorer/Chile-NIST/general_drawings/203/43/1136-35 (AAdocumentation, AAdrawings, AAdeveloper, AAstructural).dwg\n/data/tools/geoexplorer/Chile-NIST/general_drawings/203/43/1136-36 (AAdocumentation, AAdrawings, AAdeveloper, AAstructural).dwg\n/data/tools/geoexplorer/Chile-NIST/general_drawings/203/43/1136-37 (AAdocumentation, AAdrawings, AAdeveloper, AAstructural).dwg\n/data/tools/geoexplorer/Chile-NIST/general_drawings/203/43/1136-38 (AAdocumentation, AAdrawings, AAdeveloper, AAstructural).dwg\n/data/tools/geoexplorer/Chile-NIST/general_drawings/203/43/1136-39 (AAdocumentation, AAdrawings, AAdeveloper, AAstructural).dwg\n/data/tools/geoexplorer/Chile-NIST/general_drawings/203/43/1136-40 (AAdocumentation, AAdrawings, AAdeveloper, AAstructural).dwg\n/data/tools/geoexplorer/Chile-NIST/general_drawings/203/43/1136-41 (AAdocumentation, AAdrawings, AAdeveloper, AAstructural).dwg\n/data/tools/geoexplorer/Chile-NIST/general_drawings/203/43/1136-42 (AAdocumentation, AAdrawings, AAdeveloper, AAstructural).dwg\n/data/tools/geoexplorer/Chile-NIST/general_drawings/203/43/1136-43 (AAdocumentation, AAdrawings, AAdeveloper, AAstructural).dwg\n/data/tools/geoexplorer/Chile-NIST/general_drawings/203/43/1136-44 (AAdocumentation, AAdrawings, AAdeveloper, AAstructural).dwg\n/data/tools/geoexplorer/Chile-NIST/general_drawings/203/43/1136-45 (AAdocumentation, AAdrawings, AAdeveloper, AAstructural).dwg\n/data/tools/geoexplorer/Chile-NIST/general_drawings/203/43/1136-46 (AAdocumentation, AAdrawings, AAdeveloper, AAstructural).dwg\n/data/tools/geoexplorer/Chile-NIST/general_drawings/203/43/1136-47 (AAdocumentation, AAdrawings, AAdeveloper, AAstructural).dwg\n/data/tools/geoexplorer/Chile-NIST/general_drawings/203/43/1136-S01 (AAdocumentation, AAdrawings, AAdeveloper, AAfoundationStabilization).dwg\n/data/tools/geoexplorer/Chile-NIST/general_drawings/203/43/1648-E01 (AAdocumentation, AAdrawings, AAdeveloper, AAfoundationStabilization).dwg\n/data/tools/geoexplorer/Chile-NIST/general_drawings/203/43/1648-E02 (AAdocumentation, AAdrawings, AAdeveloper, AAfoundationStabilization).dwg\n/data/tools/geoexplorer/Chile-NIST/general_drawings/203/43/1648-E03 (AAdocumentation, AAdrawings, AAdeveloper, AAfoundationStabilization).dwg\n/data/tools/geoexplorer/Chile-NIST/general_drawings/203/43/1648-E04 (AAdocumentation, AAdrawings, AAdeveloper, AAfoundationStabilization).dwg\n/data/tools/geoexplorer/Chile-NIST/general_drawings/203/43/1648-E05 (AAdocumentation, AAdrawings, AAdeveloper, AAfoundationStabilization).dwg\n/data/tools/geoexplorer/Chile-NIST/general_drawings/203/43/1648-E06 (AAdocumentation, AAdrawings, AAdeveloper, AAfoundationStabilization).dwg\n/data/tools/geoexplorer/Chile-NIST/general_drawings/203/43/1648-E07 (AAdocumentation, AAdrawings, AAdeveloper, AAfoundationStabilization).dwg\n/data/tools/geoexplorer/Chile-NIST/general_drawings/203/43/1648-E08 (AAdocumentation, AAdrawings, AAdeveloper, AAfoundationStabilization).dwg\n/data/tools/geoexplorer/Chile-NIST/general_drawings/203/43/1648-E09 (AAdocumentation, AAdrawings, AAdeveloper, AAfoundationStabilization).dwg\n/data/tools/geoexplorer/Chile-NIST/general_drawings/203/43/1648-E10 (AAdocumentation, AAdrawings, AAdeveloper, AAfoundationStabilization).dwg\n/data/tools/geoexplorer/Chile-NIST/general_drawings/203/43/1648-E11 (AAdocumentation, AAdrawings, AAdeveloper, AAfoundationStabilization).dwg\n/data/tools/geoexplorer/Chile-NIST/general_drawings/203/43/A100 (AAdocumentation, AAdrawings, AAmunicipalPermit).PDF\n/data/tools/geoexplorer/Chile-NIST/general_drawings/203/43/A102 (AAdocumentation, AAdrawings, AAmunicipalPermit).PDF\n/data/tools/geoexplorer/Chile-NIST/general_drawings/203/43/A103 (AAdocumentation, AAdrawings, AAmunicipalPermit).PDF\n/data/tools/geoexplorer/Chile-NIST/general_drawings/203/43/A104 (AAdocumentation, AAdrawings, AAmunicipalPermit).PDF\n/data/tools/geoexplorer/Chile-NIST/general_drawings/203/43/A105 (AAdocumentation, AAdrawings, AAmunicipalPermit).PDF\n/data/tools/geoexplorer/Chile-NIST/general_drawings/203/43/A106 (AAdocumentation, AAdrawings, AAmunicipalPermit).PDF\n/data/tools/geoexplorer/Chile-NIST/general_drawings/203/43/A107 (AAdocumentation, AAdrawings, AAmunicipalPermit).PDF\n/data/tools/geoexplorer/Chile-NIST/general_drawings/203/43/A108 (AAdocumentation, AAdrawings, AAmunicipalPermit).PDF\n/data/tools/geoexplorer/Chile-NIST/general_drawings/203/43/A109 (AAdocumentation, AAdrawings, AAmunicipalPermit).PDF\n/data/tools/geoexplorer/Chile-NIST/general_drawings/203/43/A110 (AAdocumentation, AAdrawings, AAmunicipalPermit).PDF\n/data/tools/geoexplorer/Chile-NIST/general_drawings/203/43/A111 (AAdocumentation, AAdrawings, AAmunicipalPermit).PDF\n/data/tools/geoexplorer/Chile-NIST/general_drawings/203/43/A112 (AAdocumentation, AAdrawings, AAmunicipalPermit).PDF\n/data/tools/geoexplorer/Chile-NIST/general_drawings/203/43/A113 (AAdocumentation, AAdrawings, AAmunicipalPermit).PDF\n/data/tools/geoexplorer/Chile-NIST/general_drawings/203/43/A114 (AAdocumentation, AAdrawings, AAmunicipalPermit).PDF\n/data/tools/geoexplorer/Chile-NIST/general_drawings/203/43/A115 (AAdocumentation, AAdrawings, AAmunicipalPermit).PDF\n/data/tools/geoexplorer/Chile-NIST/general_drawings/203/43/A117 (AAdocumentation, AAdrawings, AAmunicipalPermit).PDF\n/data/tools/geoexplorer/Chile-NIST/general_drawings/203/43/Elev-N-O (AAdocumentation, AAdrawings, AAdeveloper, AAarchitectural).dwg\n/data/tools/geoexplorer/Chile-NIST/general_drawings/203/43/Elev-N-P (AAdocumentation, AAdrawings, AAdeveloper, AAarchitectural).dwg\n/data/tools/geoexplorer/Chile-NIST/general_drawings/203/43/Elev-S-O (AAdocumentation, AAdrawings, AAdeveloper, AAarchitectural).dwg\n/data/tools/geoexplorer/Chile-NIST/general_drawings/203/43/Elev-S-P (AAdocumentation, AAdrawings, AAdeveloper, AAarchitectural).dwg\n/data/tools/geoexplorer/Chile-NIST/general_drawings/203/43/Planta Subterraneo (AAdocumentation, AAdrawings, AAdeveloper, AAarchitectural).dwg\n/data/tools/geoexplorer/Chile-NIST/general_drawings/203/43/Planta piso 1 (AAdocumentation, AAdrawings, AAdeveloper, AAarchitectural).dwg\n/data/tools/geoexplorer/Chile-NIST/general_drawings/203/43/Planta piso 2 (AAdocumentation, AAdrawings, AAdeveloper, AAarchitectural).dwg\n/data/tools/geoexplorer/Chile-NIST/general_drawings/203/43/Planta piso 3-5 6-14 (AAdocumentation, AAdrawings, AAdeveloper, AAarchitectural).dwg\n/data/tools/geoexplorer/Chile-NIST/general_drawings/203/43/Planta pisos 15-16 (AAdocumentation, AAdrawings, AAdeveloper, AAarchitectural).dwg\n/data/tools/geoexplorer/Chile-NIST/general_drawings/203/43/Planta pisos 17-18 (AAdocumentation, AAdrawings, AAdeveloper, AAarchitectural).dwg\n/data/tools/geoexplorer/Chile-NIST/general_drawings/203/43/Planta pisos19-Terraza (AAdocumentation, AAdrawings, AAdeveloper, AAarchitectural).dwg\n/data/tools/geoexplorer/Chile-NIST/general_drawings/203/43/corte a-a (AAdocumentation, AAdrawings, AAdeveloper, AAarchitectural).dwg\n/data/tools/geoexplorer/Chile-NIST/general_drawings/203/43/corte b-b (AAdocumentation, AAdrawings, AAdeveloper, AAarchitectural).dwg\n/data/tools/geoexplorer/Chile-NIST/general_drawings/203/43/corte c-c (AAdocumentation, AAdrawings, AAdeveloper, AAarchitectural).dwg\n/data/tools/geoexplorer/Chile-NIST/general_drawings/203/43/README.TXT",/data/tools/geoexplorer/Chile-NIST/photos/Maule.Chile.2010/203/3/gabriel_alarcon_100_2899.jpg,/data/tools/geoexplorer/Chile-NIST/photos/Maule.Chile.2010/203/5/santiago_pujol_IMG_0306.JPG,COLEGIO INMACULADA,0.402,,0.68,
204,Castellon 154,-36.828675,-73.044772,Castellon,154,Concepcion,25,0.320450231562975,,,/data/tools/geoexplorer/Chile-NIST/photos/Maule.Chile.2010/204/6/patricio_bonelli_IMG_3633.JPG,/data/tools/geoexplorer/Chile-NIST/photos/Maule.Chile.2010/204/6/patricio_bonelli_IMG_3634.JPG,COLEGIO INMACULADA,0.402,,0.68,
205,Centro Mayor,-36.822667,-73.044833,Freire,1165,Concepcion,25,0.678373892526455,,"/data/tools/geoexplorer/Chile-NIST/general_drawings/205/43/A01 (CMdocumentation, CMdrawings, CMmunicipalPermit).PDF\n/data/tools/geoexplorer/Chile-NIST/general_drawings/205/43/A02 (CMdocumentation, CMdrawings, CMmunicipalPermit).PDF\n/data/tools/geoexplorer/Chile-NIST/general_drawings/205/43/A03 (CMdocumentation, CMdrawings, CMmunicipalPermit).PDF\n/data/tools/geoexplorer/Chile-NIST/general_drawings/205/43/A04 (CMdocumentation, CMdrawings, CMmunicipalPermit).PDF\n/data/tools/geoexplorer/Chile-NIST/general_drawings/205/43/A05 (CMdocumentation, CMdrawings, CMmunicipalPermit).PDF\n/data/tools/geoexplorer/Chile-NIST/general_drawings/205/43/A06 (CMdocumentation, CMdrawings, CMmunicipalPermit).PDF\n/data/tools/geoexplorer/Chile-NIST/general_drawings/205/43/A07 (CMdocumentation, CMdrawings, CMmunicipalPermit).PDF\n/data/tools/geoexplorer/Chile-NIST/general_drawings/205/43/A08 (CMdocumentation, CMdrawings, CMmunicipalPermit).PDF\n/data/tools/geoexplorer/Chile-NIST/general_drawings/205/43/A09 (CMdocumentation, CMdrawings, CMmunicipalPermit).PDF\n/data/tools/geoexplorer/Chile-NIST/general_drawings/205/43/A10 (CMdocumentation, CMdrawings, CMmunicipalPermit).PDF\n/data/tools/geoexplorer/Chile-NIST/general_drawings/205/43/A11 (CMdocumentation, CMdrawings, CMmunicipalPermit).PDF\n/data/tools/geoexplorer/Chile-NIST/general_drawings/205/43/A12 (CMdocumentation, CMdrawings, CMmunicipalPermit).PDF\n/data/tools/geoexplorer/Chile-NIST/general_drawings/205/43/A13 (CMdocumentation, CMdrawings, CMmunicipalPermit).PDF\n/data/tools/geoexplorer/Chile-NIST/general_drawings/205/43/C - EFR 730 - 001 rev2 (CMdocumentation, CMdrawings, CMdeveloper, CMstructural).dwg\n/data/tools/geoexplorer/Chile-NIST/general_drawings/205/43/C - EFR 730 - 002 rev3 (CMdocumentation, CMdrawings, CMdeveloper, CMstructural).dwg\n/data/tools/geoexplorer/Chile-NIST/general_drawings/205/43/C - EFR 730 - 003 rev2 (CMdocumentation, CMdrawings, CMdeveloper, CMstructural).dwg\n/data/tools/geoexplorer/Chile-NIST/general_drawings/205/43/C - EFR 730 - 004 rev3 (CMdocumentation, CMdrawings, CMdeveloper, CMstructural).dwg\n/data/tools/geoexplorer/Chile-NIST/general_drawings/205/43/C - EFR 730 - 005 rev3 (CMdocumentation, CMdrawings, CMdeveloper, CMstructural).dwg\n/data/tools/geoexplorer/Chile-NIST/general_drawings/205/43/C - EFR 730 - 006 rev2 (CMdocumentation, CMdrawings, CMdeveloper, CMstructural).dwg\n/data/tools/geoexplorer/Chile-NIST/general_drawings/205/43/C - EFR 730 - 007 rev2 (CMdocumentation, CMdrawings, CMdeveloper, CMstructural).dwg\n/data/tools/geoexplorer/Chile-NIST/general_drawings/205/43/C - EFR 730 - 008 rev2 (CMdocumentation, CMdrawings, CMdeveloper, CMstructural).dwg\n/data/tools/geoexplorer/Chile-NIST/general_drawings/205/43/C - EFR 730 - 009 rev1 (CMdocumentation, CMdrawings, CMdeveloper, CMstructural).dwg\n/data/tools/geoexplorer/Chile-NIST/general_drawings/205/43/C - EFR 730 - 010 rev1 (CMdocumentation, CMdrawings, CMdeveloper, CMstructural).dwg\n/data/tools/geoexplorer/Chile-NIST/general_drawings/205/43/C - EFR 730 - 011 rev1 (CMdocumentation, CMdrawings, CMdeveloper, CMstructural).dwg\n/data/tools/geoexplorer/Chile-NIST/general_drawings/205/43/C - EFR 730 - 012 rev2 (CMdocumentation, CMdrawings, CMdeveloper, CMstructural).dwg\n/data/tools/geoexplorer/Chile-NIST/general_drawings/205/43/C - EFR 730 - 013 rev2 (CMdocumentation, CMdrawings, CMdeveloper, CMstructural).dwg\n/data/tools/geoexplorer/Chile-NIST/general_drawings/205/43/C - EFR 730 - 014 rev1 (CMdocumentation, CMdrawings, CMdeveloper, CMstructural).dwg\n/data/tools/geoexplorer/Chile-NIST/general_drawings/205/43/C - EFR 730 - 015 rev2 (CMdocumentation, CMdrawings, CMdeveloper, CMstructural).dwg\n/data/tools/geoexplorer/Chile-NIST/general_drawings/205/43/C - EFR 730 - 016 rev1 (CMdocumentation, CMdrawings, CMdeveloper, CMstructural).dwg\n/data/tools/geoexplorer/Chile-NIST/general_drawings/205/43/C - EFR 730 - 017 rev1 (CMdocumentation, CMdrawings, CMdeveloper, CMstructural).dwg\n/data/tools/geoexplorer/Chile-NIST/general_drawings/205/43/C - EFR 730 - 018 rev1 (CMdocumentation, CMdrawings, CMdeveloper, CMstructural).dwg\n/data/tools/geoexplorer/Chile-NIST/general_drawings/205/43/C - EFR 730 - 019 rev1 (CMdocumentation, CMdrawings, CMdeveloper, CMstructural).dwg\n/data/tools/geoexplorer/Chile-NIST/general_drawings/205/43/C - EFR 730 - 020 rev2 (CMdocumentation, CMdrawings, CMdeveloper, CMstructural).dwg\n/data/tools/geoexplorer/Chile-NIST/general_drawings/205/43/C - EFR 730 - 021 rev3 (CMdocumentation, CMdrawings, CMdeveloper, CMstructural).dwg\n/data/tools/geoexplorer/Chile-NIST/general_drawings/205/43/C - EFR 730 - 022 rev2 (CMdocumentation, CMdrawings, CMdeveloper, CMstructural).dwg\n/data/tools/geoexplorer/Chile-NIST/general_drawings/205/43/C - EFR 730 - 023 rev2 (CMdocumentation, CMdrawings, CMdeveloper, CMstructural).dwg\n/data/tools/geoexplorer/Chile-NIST/general_drawings/205/43/C - EFR 730 - 024 rev1 (CMdocumentation, CMdrawings, CMdeveloper, CMstructural).dwg\n/data/tools/geoexplorer/Chile-NIST/general_drawings/205/43/C - EFR 730 - 025 rev1 (CMdocumentation, CMdrawings, CMdeveloper, CMstructural).dwg\n/data/tools/geoexplorer/Chile-NIST/general_drawings/205/43/C - EFR 730 - 026 rev1 (CMdocumentation, CMdrawings, CMdeveloper, CMstructural).dwg\n/data/tools/geoexplorer/Chile-NIST/general_drawings/205/43/C - EFR 730 - 027 rev2 (CMdocumentation, CMdrawings, CMdeveloper, CMstructural).dwg\n/data/tools/geoexplorer/Chile-NIST/general_drawings/205/43/C - EFR 730 - 028 rev1 (CMdocumentation, CMdrawings, CMdeveloper, CMstructural).dwg\n/data/tools/geoexplorer/Chile-NIST/general_drawings/205/43/C - EFR 730 - 029 rev2 (CMdocumentation, CMdrawings, CMdeveloper, CMstructural).dwg\n/data/tools/geoexplorer/Chile-NIST/general_drawings/205/43/C - EFR 730 - 030 rev3 (CMdocumentation, CMdrawings, CMdeveloper, CMstructural).dwg\n/data/tools/geoexplorer/Chile-NIST/general_drawings/205/43/C - EFR 730 - 031 rev1 (CMdocumentation, CMdrawings, CMdeveloper, CMstructural).dwg\n/data/tools/geoexplorer/Chile-NIST/general_drawings/205/43/C - EFR 730 - 032 rev1 (CMdocumentation, CMdrawings, CMdeveloper, CMstructural).dwg\n/data/tools/geoexplorer/Chile-NIST/general_drawings/205/43/C - EFR 730 - 033-0(piso 18) (CMdocumentation, CMdrawings, CMdeveloper, CMstructural).dwg\n/data/tools/geoexplorer/Chile-NIST/general_drawings/205/43/C - EFR 730 - 034-0 (piso18) (CMdocumentation, CMdrawings, CMdeveloper, CMstructural).dwg\n/data/tools/geoexplorer/Chile-NIST/general_drawings/205/43/C - EFR 730 - 035-0 (CMdocumentation, CMdrawings, CMdeveloper, CMstructural).dwg\n/data/tools/geoexplorer/Chile-NIST/general_drawings/205/43/C - EFR 730 - 036-0 (CMdocumentation, CMdrawings, CMdeveloper, CMstructural).dwg\n/data/tools/geoexplorer/Chile-NIST/general_drawings/205/43/C - EFR 730 - 037-0 (CMdocumentation, CMdrawings, CMdeveloper, CMstructural).dwg\n/data/tools/geoexplorer/Chile-NIST/general_drawings/205/43/C - EFR 730 - 038-0 (CMdocumentation, CMdrawings, CMdeveloper, CMstructural).dwg\n/data/tools/geoexplorer/Chile-NIST/general_drawings/205/43/C - EFR 730 - 039-1 (CMdocumentation, CMdrawings, CMdeveloper, CMstructural).dwg\n/data/tools/geoexplorer/Chile-NIST/general_drawings/205/43/C - EFR 730 - 040-1 (CMdocumentation, CMdrawings, CMdeveloper, CMstructural).dwg\n/data/tools/geoexplorer/Chile-NIST/general_drawings/205/43/C - EFR 730 - 041-1 (CMdocumentation, CMdrawings, CMdeveloper, CMstructural).dwg\n/data/tools/geoexplorer/Chile-NIST/general_drawings/205/43/C - EFR 730 - 042-0 (CMdocumentation, CMdrawings, CMdeveloper, CMstructural).dwg\n/data/tools/geoexplorer/Chile-NIST/general_drawings/205/43/C - EFR 730 - 043-0 (CMdocumentation, CMdrawings, CMdeveloper, CMstructural).dwg\n/data/tools/geoexplorer/Chile-NIST/general_drawings/205/43/C - EFR 730 - 044-0 (CMdocumentation, CMdrawings, CMdeveloper, CMstructural).dwg\n/data/tools/geoexplorer/Chile-NIST/general_drawings/205/43/C - EFR 730 - 442-0 (CMdocumentation, CMdrawings, CMdeveloper, CMstructural).dwg\n/data/tools/geoexplorer/Chile-NIST/general_drawings/205/43/C - EFR 730 - anexo 1-A (CMdocumentation, CMdrawings, CMdeveloper, CMstructural).dwg\n/data/tools/geoexplorer/Chile-NIST/general_drawings/205/43/C - EFR 730 - anexo 2 (CMdocumentation, CMdrawings, CMdeveloper, CMstructural).dwg\n/data/tools/geoexplorer/Chile-NIST/general_drawings/205/43/C - EFR 730 - anexo 3 (CMdocumentation, CMdrawings, CMdeveloper, CMstructural).DWG\n/data/tools/geoexplorer/Chile-NIST/general_drawings/205/43/C - EFR 730 - anexo 4 Modif (CMdocumentation, CMdrawings, CMdeveloper, CMstructural).dwg\n/data/tools/geoexplorer/Chile-NIST/general_drawings/205/43/Emplazamiento Centro Mayor (CMdocumentation, CMdrawings, CMdeveloper, CMsiteLayout).dwg\n/data/tools/geoexplorer/Chile-NIST/general_drawings/205/43/Emplazamiento Centro Mayor2 (CMdocumentation, CMdrawings, CMdeveloper, CMsiteLayout).dwg\n/data/tools/geoexplorer/Chile-NIST/general_drawings/205/43/Emplazamiento Centro Mayor3 (CMdocumentation, CMdrawings, CMdeveloper, CMsiteLayout).dwg\n/data/tools/geoexplorer/Chile-NIST/general_drawings/205/43/FREIRE PROP.LADO NORTE (CMdocumentation, CMdrawings, CMdeveloper, CMsiteLayout).DWG\n/data/tools/geoexplorer/Chile-NIST/general_drawings/205/43/FT C. M.- A (CMdocumentation, CMpostEarthquake, PuntalMetállico).dwg\n/data/tools/geoexplorer/Chile-NIST/general_drawings/205/43/FT-CM-002-A (CMdocumentation, CMpostEarthquake, PuntalMetállico).dwg\n/data/tools/geoexplorer/Chile-NIST/general_drawings/205/43/Lam 1 al 3 (CMdocumentation, CMdrawings, CMdeveloper, CMarchitectural).DWG\n/data/tools/geoexplorer/Chile-NIST/general_drawings/205/43/Lam 4 y 5 (CMdocumentation, CMdrawings, CMdeveloper, CMarchitectural).DWG\n/data/tools/geoexplorer/Chile-NIST/general_drawings/205/43/Lamina 6 (CMdocumentation, CMdrawings, CMdeveloper, CMarchitectural).dwg\n/data/tools/geoexplorer/Chile-NIST/general_drawings/205/43/Lamina 7 (CMdocumentation, CMdrawings, CMdeveloper, CMarchitectural).DWG\n/data/tools/geoexplorer/Chile-NIST/general_drawings/205/43/Laminas 8 y 9 (CMdocumentation, CMdrawings, CMdeveloper, CMarchitectural).DWG\n/data/tools/geoexplorer/Chile-NIST/general_drawings/205/43/Laminas detalles (CMdocumentation, CMdrawings, CMdeveloper, CMarchitectural).dwg\n/data/tools/geoexplorer/Chile-NIST/general_drawings/205/43/MUROS FREIRE 1165 (CMdocumentation, CMdrawings, CMdeveloper, CMsiteLayout).DWG\n/data/tools/geoexplorer/Chile-NIST/general_drawings/205/43/Refuerzo  C.M.-  002 (CMdocumentation, CMpostEarthquake, PuntalMetállico).dwg\n/data/tools/geoexplorer/Chile-NIST/general_drawings/205/43/Refuerzo- C. M.- 1 (CMdocumentation, CMpostEarthquake, PuntalMetállico).dwg\n/data/tools/geoexplorer/Chile-NIST/general_drawings/205/43/README.txt",/data/tools/geoexplorer/Chile-NIST/photos/Maule.Chile.2010/205/19/john_wallace_P3172337.JPG,/data/tools/geoexplorer/Chile-NIST/photos/Maule.Chile.2010/205/6/patricio_bonelli_IMG_3818.JPG,COLEGIO INMACULADA,0.402,,0.68,
206,Edificio Concepto & Estilo Concepcion,-36.822137,-73.043744,Freire,1255,Concepcion,25,0.777231905859137,,,/data/tools/geoexplorer/Chile-NIST/photos/Maule.Chile.2010/206/5/santiago_pujol_IMG_0363.JPG,,COLEGIO INMACULADA,0.402,,0.68,
207,Pedro de Valdivia,-36.85308,-73.049865,Pedro de Valdivia,,Concepcion,25,2.78113851314553,,,/data/tools/geoexplorer/Chile-NIST/photos/Maule.Chile.2010/207/32/latbsdc_PDV-1.jpg,/data/tools/geoexplorer/Chile-NIST/photos/Maule.Chile.2010/207/32/latbsdc_PDV-53.jpg,COLEGIO INMACULADA,0.402,,0.68,
208,Edificio Geocentro Obispo Salas,-36.829701,-73.056004,Obispo Hipolito Salas,445,Concepcion,25,0.708417250101998,,,/data/tools/geoexplorer/Chile-NIST/photos/Maule.Chile.2010/208/30/farzad_naeim_Salas-2.jpg,/data/tools/geoexplorer/Chile-NIST/photos/Maule.Chile.2010/208/6/patricio_bonelli_IMG_3804.JPG,COLEGIO INMACULADA,0.402,,0.68,
209,Edificio Tucapel,-36.825078,-73.045557,Barros Arana,1037,Concepcion,25,0.41535932647049,,,/data/tools/geoexplorer/Chile-NIST/photos/Maule.Chile.2010/209/5/santiago_pujol_IMG_0376.JPG,,COLEGIO INMACULADA,0.402,,0.68,
210,Don Luis,-33.503237,-70.753125,Luis Gandarillas,360,Santiago,1,1.84371570352583,,,/data/tools/geoexplorer/Chile-NIST/photos/Maule.Chile.2010/210/22/guillermo_franco_IMG_3114.JPG,/data/tools/geoexplorer/Chile-NIST/photos/Maule.Chile.2010/210/5/santiago_pujol_IMG_1041.JPG,MAIPU RM,0.561,,0.44,
211,Emerald,-33.455186,-70.600541,Av Irarrazaval,2941,Santiago,33,4.24725944578974,,,/data/tools/geoexplorer/Chile-NIST/photos/Maule.Chile.2010/211/5/santiago_pujol_IMG_1142.JPG,/data/tools/geoexplorer/Chile-NIST/photos/Maule.Chile.2010/211/5/santiago_pujol_IMG_1117.JPG,CERRO SANTA LUCIA,0.338,,0.451,
212,Conservador de Bienes Raices,-33.014033,-71.550671,9 Norte,623,Viña del Mar,8,1.25289096899006,,,/data/tools/geoexplorer/Chile-NIST/photos/Maule.Chile.2010/212/3/gabriel_alarcon_DSC01866.JPG,,CENTRO,0.334,,0.33,
213,Emporium,-33.013608,-71.551304,9 Norte,555,Viña del Mar,8,1.30094002171022,,,/data/tools/geoexplorer/Chile-NIST/photos/Maule.Chile.2010/213/8/gilberto_leiva_137_2104.JPG,/data/tools/geoexplorer/Chile-NIST/photos/Maule.Chile.2010/213/4/andres_lepage_DSCN0063.jpg,CENTRO,0.334,,0.33,
214,Edificio de Oficinas Libertad,-33.014609,-71.549464,Av Libertad,770,Viña del Mar,8,1.19529297793255,,,/data/tools/geoexplorer/Chile-NIST/photos/Maule.Chile.2010/214/4/andres_lepage_DSCN0054.jpg,/data/tools/geoexplorer/Chile-NIST/photos/Maule.Chile.2010/214/3/gabriel_alarcon_DSC02185.JPG,CENTRO,0.334,,0.33,
215,9 Norte,-33.014168,-71.548903,9 Norte,,Viña del Mar,8,1.25039394164132,,,/data/tools/geoexplorer/Chile-NIST/photos/Maule.Chile.2010/215/8/gilberto_leiva_137_2097.JPG,,CENTRO,0.334,,0.33,
216,Montebianco,-33.018758,-71.551878,1 Poniente,350,Viña del Mar,8,0.73434739904865,,,/data/tools/geoexplorer/Chile-NIST/photos/Maule.Chile.2010/216/26/joe_maffei_IMG_8088.JPG,/data/tools/geoexplorer/Chile-NIST/photos/Maule.Chile.2010/216/6/patricio_bonelli_IMG_3345.JPG,CENTRO,0.334,,0.33,
217,Parque Montemar,-32.935614,-71.547205,Av Costa de Montemar,624,Concon,8,9.97826431240428,,"/data/tools/geoexplorer/Chile-NIST/general_drawings/217/6/LAM 00 (NOTAS GENERALES) (general notes; in Spanish).dwg\n/data/tools/geoexplorer/Chile-NIST/general_drawings/217/6/LAM_10_(PL_PISO 3º) (slab plan floor 3; in Spanish).dwg\n/data/tools/geoexplorer/Chile-NIST/general_drawings/217/6/LAM_11_(PE_PISO 4º) (struct plan floor 4; in Spanish).dwg\n/data/tools/geoexplorer/Chile-NIST/general_drawings/217/6/LAM_12_(PL_PISO 4º) (slab plan floor 4; in Spanish).dwg\n/data/tools/geoexplorer/Chile-NIST/general_drawings/217/6/LAM_13_(PE_PISOS 6º a 10º) (struct plan floors 5 to 10; in Spanish).dwg\n/data/tools/geoexplorer/Chile-NIST/general_drawings/217/6/LAM_14_(PE_PISOS 5º a 25º) (slab plan floors 5 to 25; in Spanish).dwg\n/data/tools/geoexplorer/Chile-NIST/general_drawings/217/6/LAM_15_(PE_PISOS 5º a 25º) (repeat of LAM_14, LAM_15 missing; in Spanish).dwg\n/data/tools/geoexplorer/Chile-NIST/general_drawings/217/6/LAM_16_(PE_PISO 26º) (struct plan floor 26; in Spanish).dwg\n/data/tools/geoexplorer/Chile-NIST/general_drawings/217/6/LAM_17_(PL_PISO 26º) (slab plan floor 26; in Spanish).dwg\n/data/tools/geoexplorer/Chile-NIST/general_drawings/217/6/LAM_18_(PE_SALA MAQUINAS) (struct plan HVAC floor; in Spanish).dwg\n/data/tools/geoexplorer/Chile-NIST/general_drawings/217/6/LAM_19_(PL_SALA MAQUINAS) (slab plan HVAC floor; in Spanish).dwg\n/data/tools/geoexplorer/Chile-NIST/general_drawings/217/6/LAM_1_(FUNDACION) (struct plan foundation; in Spanish).dwg\n/data/tools/geoexplorer/Chile-NIST/general_drawings/217/6/LAM_20 ( DETALLES ESCALERAS) (details of stairs; in Spanish).dwg\n/data/tools/geoexplorer/Chile-NIST/general_drawings/217/6/LAM_21(EJE A) (elev, eje=axis; in Spanish).dwg\n/data/tools/geoexplorer/Chile-NIST/general_drawings/217/6/LAM_22(EJE B) (elev, eje=axis; in Spanish).dwg\n/data/tools/geoexplorer/Chile-NIST/general_drawings/217/6/LAM_23(EJE C) (elev, eje=axis; in Spanish).dwg\n/data/tools/geoexplorer/Chile-NIST/general_drawings/217/6/LAM_24(EJE D) (elev, eje=axis; in Spanish).dwg\n/data/tools/geoexplorer/Chile-NIST/general_drawings/217/6/LAM_25(EJES E-F) (elev, ejes=axes; in Spanish).dwg\n/data/tools/geoexplorer/Chile-NIST/general_drawings/217/6/LAM_26(EJES G-H) (elev, ejes=axes; in Spanish).dwg\n/data/tools/geoexplorer/Chile-NIST/general_drawings/217/6/LAM_27(EJES I-J) (elev, ejes=axes; in Spanish).dwg\n/data/tools/geoexplorer/Chile-NIST/general_drawings/217/6/LAM_28(EJES K-B'') (elev, ejes=axes; in Spanish).dwg\n/data/tools/geoexplorer/Chile-NIST/general_drawings/217/6/LAM_29(EJES 1-2-2a17b-3-11-16) (elev, ejes=axes; in Spanish).dwg\n/data/tools/geoexplorer/Chile-NIST/general_drawings/217/6/LAM_2_PL FUNDACION) (mat foundation plan; in Spanish).dwg\n/data/tools/geoexplorer/Chile-NIST/general_drawings/217/6/LAM_30(EJES 4-5 y DEST.VIGAS 1-2-3-4) (elev, ejes=axes; in Spanish).dwg\n/data/tools/geoexplorer/Chile-NIST/general_drawings/217/6/LAM_31(EJES 8-15-19) (elev, ejes=axes; in Spanish).dwg\n/data/tools/geoexplorer/Chile-NIST/general_drawings/217/6/LAM_32(EJES 6-14-7-13-9-12) (elev, ejes=axes; in Spanish).dwg\n/data/tools/geoexplorer/Chile-NIST/general_drawings/217/6/LAM_33(EJES 10-17-17a-18) (elev, ejes=axes; in Spanish).dwg\n/data/tools/geoexplorer/Chile-NIST/general_drawings/217/6/LAM_3_(PE_SUBTERRANEO) (struct plan basement; in Spanish).dwg\n/data/tools/geoexplorer/Chile-NIST/general_drawings/217/6/LAM_4_(PL_SUBTERRANEO) (slab plan basement; in Spanish).dwg\n/data/tools/geoexplorer/Chile-NIST/general_drawings/217/6/LAM_5_(PE_PISO 1º) (struct plan floor 1; in Spanish).dwg\n/data/tools/geoexplorer/Chile-NIST/general_drawings/217/6/LAM_6_(PL_PISO 1º) (slab plan floor 1; in Spanish).dwg\n/data/tools/geoexplorer/Chile-NIST/general_drawings/217/6/LAM_7_(PE_PISO 2º) (struct plan floor 2; in Spanish).dwg\n/data/tools/geoexplorer/Chile-NIST/general_drawings/217/6/LAM_8_(PL_PISO 2º) (slab plan floor 2; in Spanish).dwg\n/data/tools/geoexplorer/Chile-NIST/general_drawings/217/6/LAM_9_(PE_PISO 3º) (struct plan floor 3; in Spanish).dwg",/data/tools/geoexplorer/Chile-NIST/photos/Maule.Chile.2010/217/6/patricio_bonelli_IMG_3886.JPG,,CENTRO,0.334,,0.33,
218,Antigona,-33.020485,-71.544091,5 Oriente,260,Viña del Mar,8,0.82334478451303,,,/data/tools/geoexplorer/Chile-NIST/photos/Maule.Chile.2010/218/11/alvaro_celestino_IMG_3984.JPG,/data/tools/geoexplorer/Chile-NIST/photos/Maule.Chile.2010/218/8/gilberto_leiva_DSCF1750.JPG,CENTRO,0.334,,0.33,
219,Piedra Azul,-33.021005,-71.552733,1 Poniente,123,Viña del Mar,8,0.510453429226718,,,/data/tools/geoexplorer/Chile-NIST/photos/Maule.Chile.2010/219/8/gilberto_leiva_137_2066.JPG,,CENTRO,0.334,,0.33,
220,Rio Imperial,-33.015547,-71.552358,2 Poniente,648,Viña del Mar,8,1.09416909230633,,,/data/tools/geoexplorer/Chile-NIST/photos/Maule.Chile.2010/220/26/joe_maffei_IMG_7640.JPG,/data/tools/geoexplorer/Chile-NIST/photos/Maule.Chile.2010/220/6/patricio_bonelli_IMG_3795.JPG,CENTRO,0.334,,0.33,
221,Rio Petrohue,-33.015893,-71.551811,7 Norte,585,Viña del Mar,8,1.05024912532992,,/data/tools/geoexplorer/Chile-NIST/general_drawings/221/6/PETROHUE ELEVACIONES EJES.pdf\n/data/tools/geoexplorer/Chile-NIST/general_drawings/221/6/PETROHUE PLANTAS.pdf\n/data/tools/geoexplorer/Chile-NIST/general_drawings/221/6/scan003595.pdf\n/data/tools/geoexplorer/Chile-NIST/general_drawings/221/6/scan003596.pdf\n/data/tools/geoexplorer/Chile-NIST/general_drawings/221/6/scan003597.pdf\n/data/tools/geoexplorer/Chile-NIST/general_drawings/221/6/scan003598.pdf\n/data/tools/geoexplorer/Chile-NIST/general_drawings/221/6/scan003599.pdf\n/data/tools/geoexplorer/Chile-NIST/general_drawings/221/6/scan003600.pdf\n/data/tools/geoexplorer/Chile-NIST/general_drawings/221/6/scan003601.pdf\n/data/tools/geoexplorer/Chile-NIST/general_drawings/221/6/scan003602.pdf\n/data/tools/geoexplorer/Chile-NIST/general_drawings/221/6/scan003603.pdf\n/data/tools/geoexplorer/Chile-NIST/general_drawings/221/6/scan003604.pdf\n/data/tools/geoexplorer/Chile-NIST/general_drawings/221/6/scan003605.pdf\n/data/tools/geoexplorer/Chile-NIST/general_drawings/221/6/scan003606.pdf\n/data/tools/geoexplorer/Chile-NIST/general_drawings/221/6/scan003607.pdf\n/data/tools/geoexplorer/Chile-NIST/general_drawings/221/6/scan003608.pdf\n/data/tools/geoexplorer/Chile-NIST/general_drawings/221/6/scan003609.pdf\n/data/tools/geoexplorer/Chile-NIST/general_drawings/221/6/scan003610.pdf\n/data/tools/geoexplorer/Chile-NIST/general_drawings/221/6/scan003611.pdf\n/data/tools/geoexplorer/Chile-NIST/general_drawings/221/6/scan003612.pdf\n/data/tools/geoexplorer/Chile-NIST/general_drawings/221/6/scan003613.pdf\n/data/tools/geoexplorer/Chile-NIST/general_drawings/221/6/scan003614.pdf\n/data/tools/geoexplorer/Chile-NIST/general_drawings/221/6/scan003615.pdf\n/data/tools/geoexplorer/Chile-NIST/general_drawings/221/6/scan003616.pdf\n/data/tools/geoexplorer/Chile-NIST/general_drawings/221/6/scan003617.pdf\n/data/tools/geoexplorer/Chile-NIST/general_drawings/221/6/scan003618.pdf\n/data/tools/geoexplorer/Chile-NIST/general_drawings/221/6/scan003619.pdf\n/data/tools/geoexplorer/Chile-NIST/general_drawings/221/6/scan003620.pdf\n/data/tools/geoexplorer/Chile-NIST/general_drawings/221/6/README.TXT,/data/tools/geoexplorer/Chile-NIST/photos/Maule.Chile.2010/221/31/marshall_lew_RioPet-101.jpg,/data/tools/geoexplorer/Chile-NIST/photos/Maule.Chile.2010/221/3/gabriel_alarcon_DSC03069.JPG,CENTRO,0.334,,0.33,
222,2 Norte,-33.021264,-71.551628,2 Norte,,Viña del Mar,8,0.45537356149143,,,/data/tools/geoexplorer/Chile-NIST/photos/Maule.Chile.2010/222/5/santiago_pujol_IMG_0022.JPG,,CENTRO,0.334,,0.33,
223,Edificio Parque Araucano,-33.405526,-70.576066,Pdte Riesco,5323-5433,Santiago,10,3.78384075196657,,,/data/tools/geoexplorer/Chile-NIST/photos/Maule.Chile.2010/223/30/farzad_naeim_PA-52.jpg,,CERRO CALAN,0.23,,0.29,
224,Edificio en Providencia,-33.431124,-70.601952,,,Buin,33,3.9311578176358,,,/data/tools/geoexplorer/Chile-NIST/photos/Maule.Chile.2010/224/12/jeffrey_dragovich_Dragovich_0084_a.JPG,/data/tools/geoexplorer/Chile-NIST/photos/Maule.Chile.2010/224/12/jeffrey_dragovich_Dragovich_0067_a.JPG,CERRO SANTA LUCIA,0.338,,0.451,
225,Gymnasium Building,-36.719773,-73.108705,Arturo Prat,,Talcahuano,25,13.1923348610553,,,/data/tools/geoexplorer/Chile-NIST/photos/Maule.Chile.2010/225/31/marshall_lew_TGZ-186.jpg,/data/tools/geoexplorer/Chile-NIST/photos/Maule.Chile.2010/225/21/carlos_sempere_Sempere_6414.jpg,COLEGIO INMACULADA,0.402,,0.68,
226,Barros Arana,-36.828724,-73.055359,Barros Arana,,Concepcion,25,0.63210059444588,,,/data/tools/geoexplorer/Chile-NIST/photos/Maule.Chile.2010/226/13/jack_moehle_IMG_1782.JPG,,COLEGIO INMACULADA,0.402,,0.68,
227,Edificio Olas,-36.85764,-73.150993,Camino Coronel Km 8,,San Pedro de La Paz,9,4.04494283987594,,,/data/tools/geoexplorer/Chile-NIST/photos/Maule.Chile.2010/227/32/latbsdc_Olas-1.jpg,/data/tools/geoexplorer/Chile-NIST/photos/Maule.Chile.2010/227/11/alvaro_celestino_DSC01987.JPG,COLEGIO SAN PEDRO,0.65,,0.447,
228,Plaza Mayor III,-36.817295,-73.053576,Colo Colo,1334,Concepcion,25,1.28998185857603,,,/data/tools/geoexplorer/Chile-NIST/photos/Maule.Chile.2010/228/13/jack_moehle_IMG_1917.JPG,,COLEGIO INMACULADA,0.402,,0.68,
229,Plaza Mayor IV,-36.816782,-73.053982,Colo Colo,1372,Concepcion,25,1.35632866039856,,,/data/tools/geoexplorer/Chile-NIST/photos/Maule.Chile.2010/229/31/marshall_lew_PMC-56.jpg,,COLEGIO INMACULADA,0.402,,0.68,
230,Plaza Mayor I,-36.816503,-73.053274,Castellon,1367,Concepcion,25,1.36341561669094,,,/data/tools/geoexplorer/Chile-NIST/photos/Maule.Chile.2010/230/5/santiago_pujol_IMG_0358.JPG,/data/tools/geoexplorer/Chile-NIST/photos/Maule.Chile.2010/230/13/jack_moehle_IMG_1947.JPG,COLEGIO INMACULADA,0.402,,0.68,
231,Plaza Mayor II,-36.817022,-73.052979,Castellon,1333,Concepcion,25,1.30031990967887,,,/data/tools/geoexplorer/Chile-NIST/photos/Maule.Chile.2010/231/13/jack_moehle_IMG_1928.JPG,,COLEGIO INMACULADA,0.402,,0.68,
232,Hotel Araucano (Galeria Internacional),-36.826678,-73.051624,Barros Arana,,Concepcion,25,0.335456802347158,,,/data/tools/geoexplorer/Chile-NIST/photos/Maule.Chile.2010/232/13/jack_moehle_IMG_1999.JPG,/data/tools/geoexplorer/Chile-NIST/photos/Maule.Chile.2010/232/21/carlos_sempere_Sempere_6272.jpg,COLEGIO INMACULADA,0.402,,0.68,
233,Edificio Rucamanqui,-36.607745,-72.104402,Dieciocho de Septiembre,,Chillan,25,87.6270006806012,,,/data/tools/geoexplorer/Chile-NIST/photos/Maule.Chile.2010/233/13/jack_moehle_IMG_1359.JPG,,COLEGIO INMACULADA,0.402,,0.68,
234,Torre Mayor,-36.602649,-72.102325,Gamero,,Chillan,25,87.9672410496013,,,/data/tools/geoexplorer/Chile-NIST/photos/Maule.Chile.2010/234/13/jack_moehle_IMG_1400.JPG,/data/tools/geoexplorer/Chile-NIST/photos/Maule.Chile.2010/234/21/carlos_sempere_Sempere_5612.jpg,COLEGIO INMACULADA,0.402,,0.68,
235,Edificio Bicentenario,-36.606539,-72.093762,Bulnes,,Chillan,25,88.575771294904,,,/data/tools/geoexplorer/Chile-NIST/photos/Maule.Chile.2010/235/13/jack_moehle_IMG_1462.JPG,,COLEGIO INMACULADA,0.402,,0.68,
236,Enterprise City Development,-33.388652,-70.617773,,,Santiago,33,6.21560426694759,,,,,CERRO SANTA LUCIA,0.338,,0.451,
237,Departamento Altavista,-36.608027,-72.098517,Sargento Aldea,,Chillan,25,88.1218754361553,,,/data/tools/geoexplorer/Chile-NIST/photos/Maule.Chile.2010/237/13/jack_moehle_IMG_1556.JPG,,COLEGIO INMACULADA,0.402,,0.68,
238,Edificio Central Park,-33.430126,-70.666915,Presidente Balmaceda,2150,Santiago,33,2.51753299698783,,,/data/tools/geoexplorer/Chile-NIST/photos/Maule.Chile.2010/238/31/marshall_lew_CP-42.jpg,/data/tools/geoexplorer/Chile-NIST/photos/Maule.Chile.2010/238/22/guillermo_franco_IMG_3090.JPG,CERRO SANTA LUCIA,0.338,,0.451,
239,Gebouw in Quilicura,-33.468914,-70.59795,Las Encinas,,Santiago,2,3.92905841007023,,,/data/tools/geoexplorer/Chile-NIST/photos/Maule.Chile.2010/239/13/jack_moehle_IMG_1124.JPG,,PENALOLEN RM,0.295,,0.29,
240,Edificio de Oficinas SCL,-33.414211,-70.582476,Apoquindo,,Santiago,10,4.68547089408674,,,/data/tools/geoexplorer/Chile-NIST/photos/Maule.Chile.2010/240/31/marshall_lew_MC-56.jpg,,CERRO CALAN,0.23,,0.29,
241,Condominio Sol Oriente,-33.475847,-70.600575,Exequiel Fernandez,,Santiago,2,3.3919072179908,,,/data/tools/geoexplorer/Chile-NIST/photos/Maule.Chile.2010/241/31/marshall_lew_Sol-130.jpg,/data/tools/geoexplorer/Chile-NIST/photos/Maule.Chile.2010/241/13/jack_moehle_IMG_0903.JPG,PENALOLEN RM,0.295,,0.29,
242,El Parque,-33.493936,-70.651259,Anita Vergara,,Santiago,38,2.99593487801583,,,/data/tools/geoexplorer/Chile-NIST/photos/Maule.Chile.2010/242/31/marshall_lew_ElP-71.jpg,/data/tools/geoexplorer/Chile-NIST/photos/Maule.Chile.2010/242/30/farzad_naeim_ElP-33.jpg,CENTRO RM,0.309,,0.26,
243,Echeverria Izquierdo,-33.405509,-70.573825,Cerro El Plomo,,Santiago,10,3.58386033475565,,,/data/tools/geoexplorer/Chile-NIST/photos/Maule.Chile.2010/243/31/marshall_lew_Eche-44.jpg,,CERRO CALAN,0.23,,0.29,
244,Edificio Bilbao,-33.434723,-70.587064,Avenida Diego de Almagro,3094,Santiago,33,5.21152039679205,,,/data/tools/geoexplorer/Chile-NIST/photos/Maule.Chile.2010/244/13/jack_moehle_IMG_0956.JPG,,CERRO SANTA LUCIA,0.338,,0.451,
245,Edificio en Quilicura,-33.455712,-70.584602,Los Cerezos,33,Santiago,32,5.01031197397615,,,/data/tools/geoexplorer/Chile-NIST/photos/Maule.Chile.2010/245/13/jack_moehle_IMG_0767.JPG,/data/tools/geoexplorer/Chile-NIST/photos/Maule.Chile.2010/245/13/jack_moehle_IMG_0755.JPG,COLEGIO LAS AMERICAS,0.308,,0.33,
246,Condominio Bosque Mar,-36.885822,-73.150838,Av. Costanera,7488,San Pedro de La Paz,9,5.94722537604628,,"/data/tools/geoexplorer/Chile-NIST/general_drawings/246/43/T-BM20-01 (BMdocumentation, BMdrawings, BMdeveloper, BMstructural).dwg\n/data/tools/geoexplorer/Chile-NIST/general_drawings/246/43/T-BM20-02 (BMdocumentation, BMdrawings, BMdeveloper, BMstructural).dwg\n/data/tools/geoexplorer/Chile-NIST/general_drawings/246/43/T-BM20-03 (BMdocumentation, BMdrawings, BMdeveloper, BMstructural).dwg\n/data/tools/geoexplorer/Chile-NIST/general_drawings/246/43/T-BM20-04 (BMdocumentation, BMdrawings, BMdeveloper, BMstructural).dwg\n/data/tools/geoexplorer/Chile-NIST/general_drawings/246/43/T-BM20-05 (BMdocumentation, BMdrawings, BMdeveloper, BMstructural).dwg\n/data/tools/geoexplorer/Chile-NIST/general_drawings/246/43/T-BM20-06 (BMdocumentation, BMdrawings, BMdeveloper, BMstructural).dwg\n/data/tools/geoexplorer/Chile-NIST/general_drawings/246/43/T-BM20-07 (BMdocumentation, BMdrawings, BMdeveloper, BMstructural).dwg\n/data/tools/geoexplorer/Chile-NIST/general_drawings/246/43/T-BM20-08 (BMdocumentation, BMdrawings, BMdeveloper, BMstructural).dwg\n/data/tools/geoexplorer/Chile-NIST/general_drawings/246/43/T-BM20-09 (BMdocumentation, BMdrawings, BMdeveloper, BMstructural).dwg\n/data/tools/geoexplorer/Chile-NIST/general_drawings/246/43/T-BM20-10 (BMdocumentation, BMdrawings, BMdeveloper, BMstructural).dwg\n/data/tools/geoexplorer/Chile-NIST/general_drawings/246/43/T-BM20-11 (BMdocumentation, BMdrawings, BMdeveloper, BMstructural).dwg\n/data/tools/geoexplorer/Chile-NIST/general_drawings/246/43/T-BM20-12 (BMdocumentation, BMdrawings, BMdeveloper, BMstructural).dwg\n/data/tools/geoexplorer/Chile-NIST/general_drawings/246/43/T-BM20-13 (BMdocumentation, BMdrawings, BMdeveloper, BMstructural).dwg\n/data/tools/geoexplorer/Chile-NIST/general_drawings/246/43/T-BM20-14 (BMdocumentation, BMdrawings, BMdeveloper, BMstructural).dwg\n/data/tools/geoexplorer/Chile-NIST/general_drawings/246/43/T-BM20-15 (BMdocumentation, BMdrawings, BMdeveloper, BMstructural).dwg\n/data/tools/geoexplorer/Chile-NIST/general_drawings/246/43/T-BM20-16 (BMdocumentation, BMdrawings, BMdeveloper, BMstructural).dwg\n/data/tools/geoexplorer/Chile-NIST/general_drawings/246/43/T-BM20-17 (BMdocumentation, BMdrawings, BMdeveloper, BMstructural).dwg\n/data/tools/geoexplorer/Chile-NIST/general_drawings/246/43/T-BM20-18 (BMdocumentation, BMdrawings, BMdeveloper, BMstructural).dwg\n/data/tools/geoexplorer/Chile-NIST/general_drawings/246/43/T-BM20-19 (BMdocumentation, BMdrawings, BMdeveloper, BMstructural).dwg\n/data/tools/geoexplorer/Chile-NIST/general_drawings/246/43/T-BM20-20 (BMdocumentation, BMdrawings, BMdeveloper, BMstructural).dwg\n/data/tools/geoexplorer/Chile-NIST/general_drawings/246/43/T-BM20-21 (BMdocumentation, BMdrawings, BMdeveloper, BMstructural).dwg\n/data/tools/geoexplorer/Chile-NIST/general_drawings/246/43/T-BM20-22 (BMdocumentation, BMdrawings, BMdeveloper, BMstructural).dwg\n/data/tools/geoexplorer/Chile-NIST/general_drawings/246/43/T-BM20-23 (BMdocumentation, BMdrawings, BMdeveloper, BMstructural).dwg\n/data/tools/geoexplorer/Chile-NIST/general_drawings/246/43/T-BM20-24 (BMdocumentation, BMdrawings, BMdeveloper, BMstructural).dwg\n/data/tools/geoexplorer/Chile-NIST/general_drawings/246/43/T-BM20-26 (BMdocumentation, BMdrawings, BMdeveloper, BMstructural).dwg\n/data/tools/geoexplorer/Chile-NIST/general_drawings/246/43/T-MB20-25 (BMdocumentation, BMdrawings, BMdeveloper, BMstructural).dwg\n/data/tools/geoexplorer/Chile-NIST/general_drawings/246/43/README.TXT",/data/tools/geoexplorer/Chile-NIST/photos/Maule.Chile.2010/246/30/farzad_naeim_BMSP-224.jpg,/data/tools/geoexplorer/Chile-NIST/photos/Maule.Chile.2010/246/11/alvaro_celestino_DSC01906.JPG,COLEGIO SAN PEDRO,0.65,,0.447,
247,Edificio Mar del Sur,-36.817703,-73.054203,Jose Joaquin Prieto,775,Concepcion,25,1.26989329618031,,,/data/tools/geoexplorer/Chile-NIST/photos/Maule.Chile.2010/247/30/farzad_naeim_PMC-2.jpg,,COLEGIO INMACULADA,0.402,,0.68,
248,San Jose,-33.594908,-70.713253,San Jose,,Santiago,11,7.92576408563488,,,/data/tools/geoexplorer/Chile-NIST/photos/Maule.Chile.2010/248/13/jack_moehle_IMG_0854.JPG,/data/tools/geoexplorer/Chile-NIST/photos/Maule.Chile.2010/248/13/jack_moehle_IMG_0874.JPG,CAMPUS ANTUMAPU,0.27,,0.257,
249,Base Isolated,-33.016357,-71.551827,7 Norte,560,Viña del Mar,8,0.999015480261597,,"/data/tools/geoexplorer/Chile-NIST/general_drawings/249/6/08-047_AIS_01 (base isolator details; in Spanish).dwg\n/data/tools/geoexplorer/Chile-NIST/general_drawings/249/6/LAM 00 Notas Generales (general notes; in Spanish).dwg\n/data/tools/geoexplorer/Chile-NIST/general_drawings/249/6/LAM 01-Planta de fundación (foundation plan; in Spanish).dwg\n/data/tools/geoexplorer/Chile-NIST/general_drawings/249/6/LAM 01a-Refuerzo Fundación (foundation reinforcement; in Spanish).dwg\n/data/tools/geoexplorer/Chile-NIST/general_drawings/249/6/LAM 02-PE Subterraneo 2 (struct plan basement 2; in Spanish).dwg\n/data/tools/geoexplorer/Chile-NIST/general_drawings/249/6/LAM 03-PL Subterraneo 2 Arm. Inf (basement 2 slab bottom reinforcement; in Spanish).dwg\n/data/tools/geoexplorer/Chile-NIST/general_drawings/249/6/LAM 04-PL Subterraneo 2 Arm. Sup (basement 2 slab top reinforcement; in Spanish).dwg\n/data/tools/geoexplorer/Chile-NIST/general_drawings/249/6/LAM 05-PE Subterraneo 1 (struct plan basement 1; in Spanish).dwg\n/data/tools/geoexplorer/Chile-NIST/general_drawings/249/6/LAM 06-PL Subterraneo 1 Arm. Inf (basement 1 slab bottom reinforcement; in Spanish).dwg\n/data/tools/geoexplorer/Chile-NIST/general_drawings/249/6/LAM 07-PL Subterraneo 1 Arm. Sup (basement 1 slab top reinforcement; in Spanish).dwg\n/data/tools/geoexplorer/Chile-NIST/general_drawings/249/6/LAM 08-PF  Sobre aisladores (foundation plan above base isolators; in Spanish).dwg\n/data/tools/geoexplorer/Chile-NIST/general_drawings/249/6/LAM 09-PL Sobre aisladores Arm. Inf (slab above base isolators bottom reinforcement; in Spanish).dwg\n/data/tools/geoexplorer/Chile-NIST/general_drawings/249/6/LAM 10-PL Sobre aisladores Arm. Sup (slab above base isolators top reinforcement; in Spanish).dwg\n/data/tools/geoexplorer/Chile-NIST/general_drawings/249/6/LAM 11-PE  Piso 1 (struct plan floor 1; in Spanish).dwg\n/data/tools/geoexplorer/Chile-NIST/general_drawings/249/6/LAM 12-PL Piso 1 Arm. Inf (floor 1 slab bottom reinforcement; in Spanish).dwg\n/data/tools/geoexplorer/Chile-NIST/general_drawings/249/6/LAM 13-PL Piso 1 Arm. Sup (floor 1 slab top reinforcement; in Spanish).dwg\n/data/tools/geoexplorer/Chile-NIST/general_drawings/249/6/LAM 14-PE  Piso 2 (struct plan floor 2; in Spanish).dwg\n/data/tools/geoexplorer/Chile-NIST/general_drawings/249/6/LAM 14a-PE  Enrejado_Mantenimiento (maintenance grid; in Spanish).dwg\n/data/tools/geoexplorer/Chile-NIST/general_drawings/249/6/LAM 15-PL Piso 2 Arm. Inf (floor 2 slab bottom reinforcement; in Spanish).dwg\n/data/tools/geoexplorer/Chile-NIST/general_drawings/249/6/LAM 16-PL Piso 2 Arm. Sup (floor 2 slab top reinforcement; in Spanish).dwg\n/data/tools/geoexplorer/Chile-NIST/general_drawings/249/6/LAM 17-PE  Piso 3 (struct plan floor 3; in Spanish).dwg\n/data/tools/geoexplorer/Chile-NIST/general_drawings/249/6/LAM 18-PL Piso 3 Arm. Inf (floor 3 slab bottom reinforcement; in Spanish).dwg\n/data/tools/geoexplorer/Chile-NIST/general_drawings/249/6/LAM 19-PL Piso 3 Arm. Sup (floor 3 slab top reinforcement; in Spanish).dwg\n/data/tools/geoexplorer/Chile-NIST/general_drawings/249/6/LAM 20-PE  Piso 4 (struct plan floor 4; in Spanish).dwg\n/data/tools/geoexplorer/Chile-NIST/general_drawings/249/6/LAM 21-PL Piso 4 Arm. Inf (floor 4 slab bottom rienforcement; in Spanish).dwg\n/data/tools/geoexplorer/Chile-NIST/general_drawings/249/6/LAM 22-PL Piso 4 Arm. Sup (floor 4 slab top reinforcement; in Spanish).dwg\n/data/tools/geoexplorer/Chile-NIST/general_drawings/249/6/LAM 23-PE  Piso 5 (struct plan floor 5; in Spanish).dwg\n/data/tools/geoexplorer/Chile-NIST/general_drawings/249/6/LAM 24-PL Piso 5 Arm. Inf (floor 5 slab bottom reinforcement; in Spanish).dwg\n/data/tools/geoexplorer/Chile-NIST/general_drawings/249/6/LAM 25-PL Piso 5 Arm. Sup (floor 5 top reinforcement; in Spanish).dwg\n/data/tools/geoexplorer/Chile-NIST/general_drawings/249/6/LAM 26-PE  Piso 6 (struct plan floor 6; in Spanish).dwg\n/data/tools/geoexplorer/Chile-NIST/general_drawings/249/6/LAM 27-PL Piso 6 Arm. Inf (floor 6 slab bottom reinforcement; in Spanish).dwg\n/data/tools/geoexplorer/Chile-NIST/general_drawings/249/6/LAM 28-PL Piso 6 Arm. Sup (floor 6 slab top reinforcement; in Spanish).dwg\n/data/tools/geoexplorer/Chile-NIST/general_drawings/249/6/LAM 29-PE  Sala Maquinas (HVAC floor; in Spanish).dwg\n/data/tools/geoexplorer/Chile-NIST/general_drawings/249/6/LAM 30-PL  Sala Maquinas Arm. Inf. (HVAC floor slab bottom reinforcement; in Spanish).dwg\n/data/tools/geoexplorer/Chile-NIST/general_drawings/249/6/LAM 31-PL  Sala Maquinas Arm. Sup. (HVAC floor slab top reinforcement; in Spanish).dwg\n/data/tools/geoexplorer/Chile-NIST/general_drawings/249/6/LAM 58 Destacados de Vigas (beam reinforcement details; in Spanish).dwg\n/data/tools/geoexplorer/Chile-NIST/general_drawings/249/6/LAM 59 Destacados de Vigas (beam reinforcement details; in Spanish).dwg\n/data/tools/geoexplorer/Chile-NIST/general_drawings/249/6/LAM 60 Destacados de Vigas (beam reinforcement details; in Spanish).dwg\n/data/tools/geoexplorer/Chile-NIST/general_drawings/249/6/lam_32 (ejes 1-2-4) (elev, ejes=axes; in Spanish).dwg\n/data/tools/geoexplorer/Chile-NIST/general_drawings/249/6/lam_33 (ejes 5-6-7) (elev, ejes=axes; in Spanish).dwg\n/data/tools/geoexplorer/Chile-NIST/general_drawings/249/6/lam_34 (eje 9) (elev, eje=axis; in Spanish).dwg\n/data/tools/geoexplorer/Chile-NIST/general_drawings/249/6/lam_35 (ejes 8-9a-13) (elev, ejes=axes; in Spanish).dwg\n/data/tools/geoexplorer/Chile-NIST/general_drawings/249/6/lam_36 (eje 10) (elev, eje=axis; in Spanish).dwg\n/data/tools/geoexplorer/Chile-NIST/general_drawings/249/6/lam_37 (eje 11) (elev, eje=axis; in Spanish).dwg\n/data/tools/geoexplorer/Chile-NIST/general_drawings/249/6/lam_38 (eje 12) (elev, eje=axis; in Spanish).dwg\n/data/tools/geoexplorer/Chile-NIST/general_drawings/249/6/lam_39 (eje 15) (elev, eje=axis; in Spanish).dwg\n/data/tools/geoexplorer/Chile-NIST/general_drawings/249/6/lam_40 (ejes 19-A) (elev, ejes=axes; in Spanish).dwg\n/data/tools/geoexplorer/Chile-NIST/general_drawings/249/6/lam_41 (ejes B-B1) (elev, ejes=axes; in Spanish).dwg\n/data/tools/geoexplorer/Chile-NIST/general_drawings/249/6/lam_42 (eje C) (elev, eje=axis; in Spanish).dwg\n/data/tools/geoexplorer/Chile-NIST/general_drawings/249/6/lam_43 (eje D) (elev, eje=axis; in Spanish).dwg\n/data/tools/geoexplorer/Chile-NIST/general_drawings/249/6/lam_43 (eje D)-mod (elev, eje=axis; in Spanish).dwg\n/data/tools/geoexplorer/Chile-NIST/general_drawings/249/6/lam_44 (eje E) (elev, eje=axis; in Spanish).dwg\n/data/tools/geoexplorer/Chile-NIST/general_drawings/249/6/lam_45 (eje F) (elev, eje=axis; in Spanish).dwg\n/data/tools/geoexplorer/Chile-NIST/general_drawings/249/6/lam_46 (ejes G-I) (elev, ejes=axes; in Spanish).dwg\n/data/tools/geoexplorer/Chile-NIST/general_drawings/249/6/lam_47 (eje K) (elev, eje=axis; in Spanish).dwg\n/data/tools/geoexplorer/Chile-NIST/general_drawings/249/6/lam_48 (eje L) (elev, eje=axis; in Spanish).dwg\n/data/tools/geoexplorer/Chile-NIST/general_drawings/249/6/lam_49 (ejes M-M1) (elev, ejes=axes; in Spanish).dwg\n/data/tools/geoexplorer/Chile-NIST/general_drawings/249/6/lam_50 (ejes B2-G1-H1-N-O-P) (elev, ejes=axes; in Spanish).dwg\n/data/tools/geoexplorer/Chile-NIST/general_drawings/249/6/lam_51 (ejes 14-15A-1A-1B-3A-18A-18) (elev, ejes=axes; in Spanish).dwg",/data/tools/geoexplorer/Chile-NIST/photos/Maule.Chile.2010/249/32/latbsdc_Mutual-16.jpg,,CENTRO,0.334,,0.33,
250,Plaza Trebol,-36.791564,-73.067155,Av. Paicavi,,Hualpen,25,4.39573672534035,,,/data/tools/geoexplorer/Chile-NIST/photos/Maule.Chile.2010/250/14/roberto_leon_SAM_0921.JPG,/data/tools/geoexplorer/Chile-NIST/photos/Maule.Chile.2010/250/14/roberto_leon_SAM_0922.JPG,COLEGIO INMACULADA,0.402,,0.68,
251,Costanera Development,-33.417985,-70.606336,Andres Bello,,Santiago,33,4.20929732800949,,,/data/tools/geoexplorer/Chile-NIST/photos/Maule.Chile.2010/251/30/farzad_naeim_Costanera-9.jpg,,CERRO SANTA LUCIA,0.338,,0.451,
252,Mall Plaza Norte,-33.366308,-70.678067,Los Libertadores,,Santiago,33,8.87559140840601,,,/data/tools/geoexplorer/Chile-NIST/photos/Maule.Chile.2010/252/14/roberto_leon_SAM_0663.JPG,/data/tools/geoexplorer/Chile-NIST/photos/Maule.Chile.2010/252/14/roberto_leon_SAM_0681.JPG,CERRO SANTA LUCIA,0.338,,0.451,
253,Bodega Maui,-33.331802,-70.710575,Lincoyan,,Santiago,33,13.6266081847684,,,/data/tools/geoexplorer/Chile-NIST/photos/Maule.Chile.2010/253/14/roberto_leon_SAM_0760.JPG,,CERRO SANTA LUCIA,0.338,,0.451,
254,El Salto,-33.390404,-70.622782,El Salto,,Santiago,33,5.87210317537435,,,/data/tools/geoexplorer/Chile-NIST/photos/Maule.Chile.2010/254/14/roberto_leon_SAM_0606.JPG,,CERRO SANTA LUCIA,0.338,,0.451,
255,Edificio Tenerife,-33.019626,-71.545652,Cuatro Norte,,Viña del Mar,8,0.792730009427659,,/data/tools/geoexplorer/Chile-NIST/general_drawings/255/6/9846-af.DWG\n/data/tools/geoexplorer/Chile-NIST/general_drawings/255/6/9846-e01.DWG\n/data/tools/geoexplorer/Chile-NIST/general_drawings/255/6/9846-e02.DWG\n/data/tools/geoexplorer/Chile-NIST/general_drawings/255/6/9846-e03.DWG\n/data/tools/geoexplorer/Chile-NIST/general_drawings/255/6/9846-e04.DWG\n/data/tools/geoexplorer/Chile-NIST/general_drawings/255/6/9846-e05.DWG\n/data/tools/geoexplorer/Chile-NIST/general_drawings/255/6/9846-e06.DWG\n/data/tools/geoexplorer/Chile-NIST/general_drawings/255/6/9846-e07.DWG\n/data/tools/geoexplorer/Chile-NIST/general_drawings/255/6/9846-e08.DWG\n/data/tools/geoexplorer/Chile-NIST/general_drawings/255/6/9846-e09.DWG\n/data/tools/geoexplorer/Chile-NIST/general_drawings/255/6/9846-l02.DWG\n/data/tools/geoexplorer/Chile-NIST/general_drawings/255/6/9846-l02.bak\n/data/tools/geoexplorer/Chile-NIST/general_drawings/255/6/9846-l12.DWG\n/data/tools/geoexplorer/Chile-NIST/general_drawings/255/6/9846-ls.DWG\n/data/tools/geoexplorer/Chile-NIST/general_drawings/255/6/9846-notas.DWG\n/data/tools/geoexplorer/Chile-NIST/general_drawings/255/6/9846-p01.DWG\n/data/tools/geoexplorer/Chile-NIST/general_drawings/255/6/9846-p01.dwl\n/data/tools/geoexplorer/Chile-NIST/general_drawings/255/6/9846-p03.DWG\n/data/tools/geoexplorer/Chile-NIST/general_drawings/255/6/9846-p12.DWG\n/data/tools/geoexplorer/Chile-NIST/general_drawings/255/6/9846-pf.DWG\n/data/tools/geoexplorer/Chile-NIST/general_drawings/255/6/9846-ps.DWG\n/data/tools/geoexplorer/Chile-NIST/general_drawings/255/6/9846-v1.DWG\n/data/tools/geoexplorer/Chile-NIST/general_drawings/255/6/README.txt,/data/tools/geoexplorer/Chile-NIST/photos/Maule.Chile.2010/255/19/john_wallace_P3161990.JPG,/data/tools/geoexplorer/Chile-NIST/photos/Maule.Chile.2010/255/19/john_wallace_P3162005.JPG,CENTRO,0.334,,0.33,
256,Hospital Las Higueras,-36.740201,-73.109065,Alto Horno,,Talcahuano,25,11.1719983565936,,,/data/tools/geoexplorer/Chile-NIST/photos/Maule.Chile.2010/256/15/judith_mitrani_reiser_Hospital_Tilcahueno_JMR_008.JPG,,COLEGIO INMACULADA,0.402,,0.68,
257,Plaza Mayor Development,-36.816939,-73.053479,Colo Colo / Castellon,,Concepcion,25,1.3238983683067,,,,,COLEGIO INMACULADA,0.402,,0.68,
258,Facultad de Medicina,-36.826232,-73.038405,Chacabuco,,Concepcion,25,0.90487372338164,,,/data/tools/geoexplorer/Chile-NIST/photos/Maule.Chile.2010/258/15/judith_mitrani_reiser_University_Concepcion_JMR_001.JPG,,COLEGIO INMACULADA,0.402,,0.68,
259,Hospital Yumbel,-37.096587,-72.557501,,,Yumbel,25,52.8470100518484,,,/data/tools/geoexplorer/Chile-NIST/photos/Maule.Chile.2010/259/17/william_holmes_wth 3-18 067.jpg,,COLEGIO INMACULADA,0.402,,0.68,
260,Hospital Nacimiento,-37.507575,-72.676804,Camino Concepcion - Los Angeles,,Nacimiento,27,32.0455084531734,,,/data/tools/geoexplorer/Chile-NIST/photos/Maule.Chile.2010/260/17/william_holmes_wth 060.jpg,,ALGOL,0.928,,0.38,
261,Hospital Laja,-37.278707,-72.713563,,,Laja,27,57.3778257035802,,,/data/tools/geoexplorer/Chile-NIST/photos/Maule.Chile.2010/261/17/william_holmes_wth 038.jpg,,ALGOL,0.928,,0.38,
262,Hospital Talca,-35.42684,-71.646377,Dos Norte,,Talca,20,1.71244239010566,,,/data/tools/geoexplorer/Chile-NIST/photos/Maule.Chile.2010/262/15/judith_mitrani_reiser_Hospital_Talca_JMR_008.JPG,,TALCA,0.477,,0.33,
263,Molina Farm Houses 1,-35.179599,-71.253393,,,Molina,5,22.1594566643571,,,/data/tools/geoexplorer/Chile-NIST/photos/Maule.Chile.2010/263/15/judith_mitrani_reiser_Molina_Farmhouses_JMR_001.JPG,/data/tools/geoexplorer/Chile-NIST/photos/Maule.Chile.2010/263/15/judith_mitrani_reiser_Molina_Farmhouses_JMR_001.JPG,CURICO,0.47,,0.33,
264,Hospital de Mulchen,-37.464638,-72.367653,Villagra,,Mulchen,27,47.3901693028567,,,/data/tools/geoexplorer/Chile-NIST/photos/Maule.Chile.2010/264/15/judith_mitrani_reiser_Hospital_Mulchen_JMR_009.JPG,,ALGOL,0.928,,0.38,
265,Molina Farm Houses 2,-35.208633,-71.255177,,,Molina,5,25.3914068963639,,,/data/tools/geoexplorer/Chile-NIST/photos/Maule.Chile.2010/265/15/judith_mitrani_reiser_Molina_Farmhouses_JMR_017.JPG,,CURICO,0.47,,0.33,
266,Hospital de Felix Bulnes,-33.415598,-70.696246,Leoncio Fernandez,,Santiago,37,5.62805913545857,,,/data/tools/geoexplorer/Chile-NIST/photos/Maule.Chile.2010/266/16/mike_mahoney_RIMG0024.JPG,,FCFM RM,0.165,,0.22,
268,Torre Titanium La Portada,-33.413206,-70.603742,Andrés Bello,2859-2873,Santiago,33,4.72748908682632,,,/data/tools/geoexplorer/Chile-NIST/photos/Maule.Chile.2010/268/31/marshall_lew_Titanium-95.jpg,,CERRO SANTA LUCIA,0.338,,0.451,
269,Torre del Mar,-33.015101,-71.554048,Ocho Norte,,Viña del Mar,8,1.1738118486125,,,/data/tools/geoexplorer/Chile-NIST/photos/Maule.Chile.2010/269/26/joe_maffei_IMG_7432.JPG,/data/tools/geoexplorer/Chile-NIST/photos/Maule.Chile.2010/269/19/john_wallace_P3151780.JPG,CENTRO,0.334,,0.33,
270,Fundacion Chile,-33.3731,-70.581,Avda. Parque Antonio Rabat,6165,Santiago,10,4.82764836823366,,,/data/tools/geoexplorer/Chile-NIST/photos/Maule.Chile.2010/270/40/jon_heintz_DSC05282.JPG,,CERRO CALAN,0.23,,0.29,
271,Alto Huerto,-36.836837,-73.101936,Las Margaritas,1328,Concepcion,9,1.02516617165059,,"/data/tools/geoexplorer/Chile-NIST/general_drawings/271/43/( 02 ) NIVEL -2 (AHdocumentation, AHdrawings, AHdeveloper, AHarchitectural).dwg\n/data/tools/geoexplorer/Chile-NIST/general_drawings/271/43/( 03 ) NIVEL -1 (AHdocumentation, AHdrawings, AHdeveloper, AHarchitectural).dwg\n/data/tools/geoexplorer/Chile-NIST/general_drawings/271/43/( 04 ) PRIMER NIVEL (AHdocumentation, AHdrawings, AHdeveloper, AHarchitectural).dwg\n/data/tools/geoexplorer/Chile-NIST/general_drawings/271/43/( 05 ) PLANTA SEGUNDO NIVEL (AHdocumentation, AHdrawings, AHdeveloper, AHarchitectural).dwg\n/data/tools/geoexplorer/Chile-NIST/general_drawings/271/43/( 06 ) PLANTA TIPO 3 AL 13 (AHdocumentation, AHdrawings, AHdeveloper, AHarchitectural).dwg\n/data/tools/geoexplorer/Chile-NIST/general_drawings/271/43/( 07 ) PLANTA NIVEL 14 (AHdocumentation, AHdrawings, AHdeveloper, AHarchitectural).dwg\n/data/tools/geoexplorer/Chile-NIST/general_drawings/271/43/( 08 ) PLANTA NIVEL PLANTA 15 (AHdocumentation, AHdrawings, AHdeveloper, AHarchitectural).dwg\n/data/tools/geoexplorer/Chile-NIST/general_drawings/271/43/( 09 ) PLANTA NIVEL 16 (AHdocumentation, AHdrawings, AHdeveloper, AHarchitectural).dwg\n/data/tools/geoexplorer/Chile-NIST/general_drawings/271/43/( 10 ) PLANTA DE CUBIERTA (AHdocumentation, AHdrawings, AHdeveloper, AHarchitectural).dwg\n/data/tools/geoexplorer/Chile-NIST/general_drawings/271/43/( 13 ) CORTE A-A (AHdocumentation, AHdrawings, AHdeveloper, AHarchitectural).dwg\n/data/tools/geoexplorer/Chile-NIST/general_drawings/271/43/( 14 ) CORTE B-B (AHdocumentation, AHdrawings, AHdeveloper, AHarchitectural).dwg\n/data/tools/geoexplorer/Chile-NIST/general_drawings/271/43/( 15 ) ELEVACION PRINCIPAL SUR (AHdocumentation, AHdrawings, AHdeveloper, AHarchitectural).dwg\n/data/tools/geoexplorer/Chile-NIST/general_drawings/271/43/( 16 ) ELEVACION LATERAL ORIENTE (AHdocumentation, AHdrawings, AHdeveloper, AHarchitectural).dwg\n/data/tools/geoexplorer/Chile-NIST/general_drawings/271/43/28769-01 (NOTAS) (AHdocumentation, AHdrawings, AHdeveloper, AHstructural).dwg\n/data/tools/geoexplorer/Chile-NIST/general_drawings/271/43/28769-03 (FUNDACIONES) (AHdocumentation, AHdrawings, AHdeveloper, AHstructural).dwg\n/data/tools/geoexplorer/Chile-NIST/general_drawings/271/43/28769-04 (ESTRUCT. 2º SUBT.) (AHdocumentation, AHdrawings, AHdeveloper, AHstructural).dwg\n/data/tools/geoexplorer/Chile-NIST/general_drawings/271/43/28769-05 (ESTRUCT. 1º SUBT.) (AHdocumentation, AHdrawings, AHdeveloper, AHstructural).dwg\n/data/tools/geoexplorer/Chile-NIST/general_drawings/271/43/28769-06 (ESTRUCTURAS) (AHdocumentation, AHdrawings, AHdeveloper, AHstructural).dwg\n/data/tools/geoexplorer/Chile-NIST/general_drawings/271/43/28769-07 (ESTRUCTURAS) (AHdocumentation, AHdrawings, AHdeveloper, AHstructural).dwg\n/data/tools/geoexplorer/Chile-NIST/general_drawings/271/43/28769-08 (ESTRUCTURAS) (AHdocumentation, AHdrawings, AHdeveloper, AHstructural).dwg\n/data/tools/geoexplorer/Chile-NIST/general_drawings/271/43/28769-10 (LOSAS) (AHdocumentation, AHdrawings, AHdeveloper, AHstructural).dwg\n/data/tools/geoexplorer/Chile-NIST/general_drawings/271/43/28769-11 (LOSAS) (AHdocumentation, AHdrawings, AHdeveloper, AHstructural).dwg\n/data/tools/geoexplorer/Chile-NIST/general_drawings/271/43/28769-12 (LOSAS) (AHdocumentation, AHdrawings, AHdeveloper, AHstructural).dwg\n/data/tools/geoexplorer/Chile-NIST/general_drawings/271/43/28769-13 (LOSAS) (AHdocumentation, AHdrawings, AHdeveloper, AHstructural).dwg\n/data/tools/geoexplorer/Chile-NIST/general_drawings/271/43/28769-14 (LOSAS) (AHdocumentation, AHdrawings, AHdeveloper, AHstructural).dwg\n/data/tools/geoexplorer/Chile-NIST/general_drawings/271/43/28769-15 (LOSAS) (AHdocumentation, AHdrawings, AHdeveloper, AHstructural).dwg\n/data/tools/geoexplorer/Chile-NIST/general_drawings/271/43/28769-16 (ARMADURAS) (AHdocumentation, AHdrawings, AHdeveloper, AHstructural).dwg\n/data/tools/geoexplorer/Chile-NIST/general_drawings/271/43/28769-17 (ARMADURAS) (AHdocumentation, AHdrawings, AHdeveloper, AHstructural).dwg\n/data/tools/geoexplorer/Chile-NIST/general_drawings/271/43/28769-18 (ARMADURAS) (AHdocumentation, AHdrawings, AHdeveloper, AHstructural).dwg\n/data/tools/geoexplorer/Chile-NIST/general_drawings/271/43/28769-19 (ARMADURAS) (AHdocumentation, AHdrawings, AHdeveloper, AHstructural).dwg\n/data/tools/geoexplorer/Chile-NIST/general_drawings/271/43/28769-20 (ARMADURAS) (AHdocumentation, AHdrawings, AHdeveloper, AHstructural).dwg\n/data/tools/geoexplorer/Chile-NIST/general_drawings/271/43/28769-21 (ARMADURAS) (AHdocumentation, AHdrawings, AHdeveloper, AHstructural).dwg\n/data/tools/geoexplorer/Chile-NIST/general_drawings/271/43/28769-22 (ESTRUCTURAS) (AHdocumentation, AHdrawings, AHdeveloper, AHstructural).dwg\n/data/tools/geoexplorer/Chile-NIST/general_drawings/271/43/28769-25 (LOSAS 1º SUBT. INF.) (AHdocumentation, AHdrawings, AHdeveloper, AHstructural).dwg\n/data/tools/geoexplorer/Chile-NIST/general_drawings/271/43/28769-26 (LOSAS 1º SUBT. SUP.) (AHdocumentation, AHdrawings, AHdeveloper, AHstructural).dwg\n/data/tools/geoexplorer/Chile-NIST/general_drawings/271/43/28769-27 (LOSAS 2º SUBT.) (AHdocumentation, AHdrawings, AHdeveloper, AHstructural).dwg\n/data/tools/geoexplorer/Chile-NIST/general_drawings/271/43/28769-28 (LOSAS 2º SUBT. SUP.) (AHdocumentation, AHdrawings, AHdeveloper, AHstructural).dwg\n/data/tools/geoexplorer/Chile-NIST/general_drawings/271/43/28769-31 (ELEVACIONES 16a-1b-A1-W-A-Zz) (AHdocumentation, AHdrawings, AHdeveloper, AHstructural).dwg\n/data/tools/geoexplorer/Chile-NIST/general_drawings/271/43/28769-32 (ELEVACIONES Y-C) (AHdocumentation, AHdrawings, AHdeveloper, AHstructural).dwg\n/data/tools/geoexplorer/Chile-NIST/general_drawings/271/43/28769-33 (ELEVACIONES F-G) (AHdocumentation, AHdrawings, AHdeveloper, AHstructural).dwg\n/data/tools/geoexplorer/Chile-NIST/general_drawings/271/43/28769-34 (ELEVACIONES U-K-L) (AHdocumentation, AHdrawings, AHdeveloper, AHstructural).dwg\n/data/tools/geoexplorer/Chile-NIST/general_drawings/271/43/28769-35 (ELEVACIONES P-V) (AHdocumentation, AHdrawings, AHdeveloper, AHstructural).dwg\n/data/tools/geoexplorer/Chile-NIST/general_drawings/271/43/28769-36 (ELEVACIONES Q-Ñ-R-J) (AHdocumentation, AHdrawings, AHdeveloper, AHstructural).dwg\n/data/tools/geoexplorer/Chile-NIST/general_drawings/271/43/28769-37 (ELEVACION 5) (AHdocumentation, AHdrawings, AHdeveloper, AHstructural).dwg\n/data/tools/geoexplorer/Chile-NIST/general_drawings/271/43/28769-38 (ELEVACIONES 6-8-9) (AHdocumentation, AHdrawings, AHdeveloper, AHstructural).dwg\n/data/tools/geoexplorer/Chile-NIST/general_drawings/271/43/28769-39 (ELEVACIONES 11-12) (AHdocumentation, AHdrawings, AHdeveloper, AHstructural).dwg\n/data/tools/geoexplorer/Chile-NIST/general_drawings/271/43/28769-41 (MISCELANEOS) (AHdocumentation, AHdrawings, AHdeveloper, AHstructural).dwg\n/data/tools/geoexplorer/Chile-NIST/general_drawings/271/43/28769-42 (SALA MAQ- ESTANQUE AGUA) (AHdocumentation, AHdrawings, AHdeveloper, AHstructural).dwg\n/data/tools/geoexplorer/Chile-NIST/general_drawings/271/43/28769-43 (TECHUMBRE) (AHdocumentation, AHdrawings, AHdeveloper, AHstructural).dwg\n/data/tools/geoexplorer/Chile-NIST/general_drawings/271/43/28769-44 ESTRUCTURA ACCESO (AHdocumentation, AHdrawings, AHdeveloper, AHstructural).dwg\n/data/tools/geoexplorer/Chile-NIST/general_drawings/271/43/PLANTA TIPO CONTROL 31 MARZO 2010 (AHdocumentation, AHpostEarthquake, AHdisplacementMonitoring).dwg\n/data/tools/geoexplorer/Chile-NIST/general_drawings/271/43/PLANTA TIPO CONTROL FEBRERO 2010 (AHdocumentation, AHpostEarthquake, AHdisplacementMonitoring).dwg\n/data/tools/geoexplorer/Chile-NIST/general_drawings/271/43/REFUERZO ALTO HUERTO 01 (AHdocumentation, AHpostEarthquake, AHreinforcing).pdf\n/data/tools/geoexplorer/Chile-NIST/general_drawings/271/43/REFUERZO ALTO HUERTO 02 (AHdocumentation, AHpostEarthquake, AHreinforcing).pdf\n/data/tools/geoexplorer/Chile-NIST/general_drawings/271/43/README.TXT",/data/tools/geoexplorer/Chile-NIST/photos/Maule.Chile.2010/271/43/francisco_medina_and_jack_moehle_DSC_0378.JPG,/data/tools/geoexplorer/Chile-NIST/photos/Maule.Chile.2010/271/43/francisco_medina_and_jack_moehle_DSC_3780.JPG,COLEGIO SAN PEDRO,0.65,,0.447,
272,Radisson Hotel,-33.389629,-70.619473,Sta Clara,354,Santiago,33,6.05678986381826,,,/data/tools/geoexplorer/Chile-NIST/photos/Maule.Chile.2010/272/40/jon_heintz_DSC05323.JPG,/data/tools/geoexplorer/Chile-NIST/photos/Maule.Chile.2010/272/40/jon_heintz_DSC05318.JPG,CERRO SANTA LUCIA,0.338,,0.451,
273,Tricahue,-33.014766,-71.552201,Avda. 8 Norte ,501,Viña del Mar,8,1.17858807389866,,/data/tools/geoexplorer/Chile-NIST/general_drawings/273/6/P-01.DWG\n/data/tools/geoexplorer/Chile-NIST/general_drawings/273/6/P-02.DWG\n/data/tools/geoexplorer/Chile-NIST/general_drawings/273/6/P-03.DWG\n/data/tools/geoexplorer/Chile-NIST/general_drawings/273/6/P-04.DWG\n/data/tools/geoexplorer/Chile-NIST/general_drawings/273/6/P-05.DWG\n/data/tools/geoexplorer/Chile-NIST/general_drawings/273/6/P-06.DWG\n/data/tools/geoexplorer/Chile-NIST/general_drawings/273/6/P-07.DWG\n/data/tools/geoexplorer/Chile-NIST/general_drawings/273/6/P-08.DWG\n/data/tools/geoexplorer/Chile-NIST/general_drawings/273/6/P-09.DWG\n/data/tools/geoexplorer/Chile-NIST/general_drawings/273/6/P-10.DWG\n/data/tools/geoexplorer/Chile-NIST/general_drawings/273/6/P-11.DWG\n/data/tools/geoexplorer/Chile-NIST/general_drawings/273/6/P-12.DWG\n/data/tools/geoexplorer/Chile-NIST/general_drawings/273/6/P-13.DWG\n/data/tools/geoexplorer/Chile-NIST/general_drawings/273/6/P-14.DWG\n/data/tools/geoexplorer/Chile-NIST/general_drawings/273/6/P-15.DWG\n/data/tools/geoexplorer/Chile-NIST/general_drawings/273/6/P-16.DWG\n/data/tools/geoexplorer/Chile-NIST/general_drawings/273/6/P-17.DWG\n/data/tools/geoexplorer/Chile-NIST/general_drawings/273/6/P-18.DWG\n/data/tools/geoexplorer/Chile-NIST/general_drawings/273/6/P-19.DWG\n/data/tools/geoexplorer/Chile-NIST/general_drawings/273/6/P-20.DWG\n/data/tools/geoexplorer/Chile-NIST/general_drawings/273/6/P-21.DWG\n/data/tools/geoexplorer/Chile-NIST/general_drawings/273/6/P-22.DWG\n/data/tools/geoexplorer/Chile-NIST/general_drawings/273/6/P-23.DWG\n/data/tools/geoexplorer/Chile-NIST/general_drawings/273/6/P-24.DWG\n/data/tools/geoexplorer/Chile-NIST/general_drawings/273/6/P-25.DWG\n/data/tools/geoexplorer/Chile-NIST/general_drawings/273/6/README.TXT,/data/tools/geoexplorer/Chile-NIST/photos/Maule.Chile.2010/273/40/jon_heintz_DSC05558.JPG,/data/tools/geoexplorer/Chile-NIST/photos/Maule.Chile.2010/273/40/jon_heintz_DSC05614.JPG,CENTRO,0.334,,0.33,
